{
    "commerces_vie_pratique": [
        {
            "lat": "43.2579175",
            "code_postal": "31310",
            "commune": "RIEUX-VOLVESTRE",
            "nom": "8 A HUIT",
            "adresse": "8 A HUIT\r\r\n7 Place du Préau\r\r\n31310 RIEUX-VOLVESTRE",
            "long": "1.1961369"
        },
        {
            "lat": "43.0379267",
            "code_postal": "31510",
            "commune": "LABROQUERE",
            "nom": "AIRE DE PIQUE NIQUE",
            "adresse": "AIRE DE PIQUE NIQUE \r\r\n31510 LABROQUERE",
            "long": "0.5824161"
        },
        {
            "lat": "43.0279131",
            "code_postal": "31510",
            "commune": "VALCABRERE",
            "nom": "AIRE DE PIQUE NIQUE",
            "adresse": "AIRE DE PIQUE NIQUE \r\r\n31510 VALCABRERE",
            "long": "0.5836875"
        },
        {
            "lat": "43.0904874",
            "code_postal": "31210",
            "commune": "POINTIS-DE-RIVIERE",
            "nom": "AIRE DE PIQUE NIQUE",
            "adresse": "AIRE DE PIQUE NIQUE\r\r\n31210 POINTIS-DE-RIVIERE",
            "long": "0.6225685"
        },
        {
            "lat": "43.1079451",
            "code_postal": "31360",
            "commune": "BEAUCHALOT",
            "nom": "AIRE DE PIQUE NIQUE",
            "adresse": "AIRE DE PIQUE NIQUE\r\r\n31360 BEAUCHALOT",
            "long": "0.8749629"
        },
        {
            "lat": "43.0974164",
            "code_postal": "31800",
            "commune": "VALENTINE",
            "nom": "AIRE DE PIQUE NIQUE",
            "adresse": "AIRE DE PIQUE NIQUE\r\r\n31800 VALENTINE",
            "long": "0.7057030"
        },
        {
            "lat": "43.2131",
            "code_postal": "31360",
            "commune": "BOUSSENS",
            "nom": "AIRE DE PIQUE-NIQUE",
            "adresse": "AIRE DE PIQUE-NIQUE\r\r\nBords du Lac\r\r\nEntrée de Boussens après le Pont Canal\r\r\n31360 BOUSSENS",
            "long": "1.1022"
        },
        {
            "lat": "43.2036360",
            "code_postal": "31220",
            "commune": "PALAMINY",
            "nom": "AIRE DE PIQUE-NIQUE",
            "adresse": "AIRE DE PIQUE-NIQUE\r\r\nDans le Ramier\r\r\n31220 PALAMINY",
            "long": "1.0697400"
        },
        {
            "lat": "43.2025117",
            "code_postal": "31220",
            "commune": "CAZERES",
            "nom": "AIRES DE PIQUE NIQUE DES BORDS DE GARONNE",
            "adresse": "AIRES DE PIQUE NIQUE DES BORDS DE GARONNE\r\r\nBords de Garonne\r\r\nBoulevard Jean Esterle\r\r\n31220 CAZERES",
            "long": "1.08645006"
        },
        {
            "lat": "43.1406272",
            "code_postal": "31360",
            "commune": "SAINT-MARTORY",
            "nom": "AMBULANCE TAXI TISSIERES",
            "adresse": "AMBULANCE TAXI TISSIERES\r\r\nDarré Moulis\r\r\n31360 SAINT-MARTORY",
            "long": "0.9437067"
        },
        {
            "lat": "43.4615740",
            "code_postal": "31600",
            "commune": "MURET",
            "nom": "ANTONY TAXI",
            "adresse": "ANTONY TAXI\r\r\n31600 MURET",
            "long": "1.3307100"
        },
        {
            "lat": "43.2077321",
            "code_postal": "31220",
            "commune": "CAZERES",
            "nom": "AU BON PAIN D'AUTREFOIS",
            "adresse": "AU BON PAIN D'AUTREFOIS\r\r\n15 avenue Pasteur\r\r\n31220 CAZERES",
            "long": "1.08571718"
        },
        {
            "lat": "43.2060817",
            "code_postal": "31220",
            "commune": "CAZERES",
            "nom": "BOUCHERIE CHARCUTERIE TRAITEUR GRIMALDI",
            "adresse": "BOUCHERIE CHARCUTERIE TRAITEUR GRIMALDI\r\r\n13 place de l'Hôtel de ville\r\r\n31220 CAZERES",
            "long": "1.08649298"
        },
        {
            "lat": "43.1070300",
            "code_postal": "31360",
            "commune": "BEAUCHALOT",
            "nom": "BOUCHERIE MULTISERVICES SATTLER",
            "adresse": "BOUCHERIE MULTISERVICES SATTLER\r\r\n166 Lotissement du Pré Commun\r\r\n31360 BEAUCHALOT",
            "long": "0.8635967"
        },
        {
            "lat": "43.2059241",
            "code_postal": "31220",
            "commune": "CAZERES",
            "nom": "BOULANGERIE BARTHE AU BON PAIN",
            "adresse": "BOULANGERIE BARTHE AU BON PAIN\r\r\n28 Rue Victor Hugo\r\r\n31220 CAZERES",
            "long": "1.0857497"
        },
        {
            "lat": "43.2049489",
            "code_postal": "31220",
            "commune": "CAZERES",
            "nom": "BOULANGERIE LA CAZERIENNE",
            "adresse": "BOULANGERIE LA CAZERIENNE\r\r\n35 Rue Emile Zola\r\r\n31220 CAZERES",
            "long": "1.0853092"
        },
        {
            "lat": "43.1068950",
            "code_postal": "31800",
            "commune": "SAINT-GAUDENS",
            "nom": "BOULANGERIE LA CROIX DE POUECH",
            "adresse": "BOULANGERIE LA CROIX DE POUECH\r\r\n2 Rue Hautin\r\r\n31800 SAINT-GAUDENS",
            "long": "0.7237630"
        },
        {
            "lat": "43.1071984",
            "code_postal": "31800",
            "commune": "SAINT-GAUDENS",
            "nom": "BOULANGERIE MAISON ALBINET",
            "adresse": "BOULANGERIE MAISON ALBINET\r\r\n54 Rue Victor Hugo\r\r\n31800 SAINT-GAUDENS",
            "long": "0.7230724"
        },
        {
            "lat": "43.1085209",
            "code_postal": "31800",
            "commune": "SAINT-GAUDENS",
            "nom": "BOULANGERIE MIE CALINE",
            "adresse": "BOULANGERIE MIE CALINE\r\r\n7 Rue Voltaire\r\r\n31800 SAINT-GAUDENS",
            "long": "0.7236451"
        },
        {
            "lat": "43.0823435",
            "code_postal": "31210",
            "commune": "GOURDAN-POLIGNAN",
            "nom": "BOULANGERIE PATISSERIE DU PONT",
            "adresse": "BOULANGERIE PATISSERIE DU PONT\r\r\n2 Place du Bout du Pont\r\r\n31210 GOURDAN-POLIGNAN",
            "long": "0.5750306"
        },
        {
            "lat": "43.0739708",
            "code_postal": "31210",
            "commune": "GOURDAN-POLIGNAN",
            "nom": "BOULANGERIE",
            "adresse": "BOULANGERIE\r\r\n5 Avenue de Luchon\r\r\n31210 GOURDAN-POLIGNAN",
            "long": "0.5853361"
        },
        {
            "lat": "43.1086320",
            "code_postal": "31360",
            "commune": "BEAUCHALOT",
            "nom": "BOULANGERIE-PATISSERIE LODES",
            "adresse": "BOULANGERIE-PATISSERIE LODES\r\r\nLot Pré Commun\r\r\n31360 BEAUCHALOT",
            "long": "0.8649055"
        },
        {
            "lat": "43.3081526",
            "code_postal": "31390",
            "commune": "CARBONNE",
            "nom": "CARBONNE SPORTS LOISIRS MR PONS",
            "adresse": "CARBONNE SPORTS LOISIRS MR PONS\r\r\n8 Chemin de L'Industrie\r\r\n31390 CARBONNE",
            "long": "1.2226239"
        },
        {
            "lat": "43.2097410",
            "code_postal": "31220",
            "commune": "CAZERES",
            "nom": "CARREFOUR MARKET",
            "adresse": "CARREFOUR MARKET\r\r\nRue Ernest Renan\r\r\n31220 CAZERES",
            "long": "1.0835240"
        },
        {
            "lat": "43.1097210",
            "code_postal": "31800",
            "commune": "ESTANCARBON",
            "nom": "CASINO",
            "adresse": "CASINO\r\r\nRN 117\r\r\n31800 ESTANCARBON",
            "long": "0.6262600"
        },
        {
            "lat": "43.2062461",
            "code_postal": "31220",
            "commune": "CAZERES",
            "nom": "CAZERES SPORTS LOISIRS MR PONS",
            "adresse": "CAZERES SPORTS LOISIRS MR PONS\r\r\n9 Rue de la Case\r\r\n31220 CAZERES",
            "long": "1.08646256"
        },
        {
            "lat": "43.2072363",
            "code_postal": "31220",
            "commune": "CAZERES",
            "nom": "CAZERES TAXI",
            "adresse": "CAZERES TAXI\r\r\n11 Place du Commerce\r\r\n31220 CAZERES",
            "long": "1.0860271"
        },
        {
            "lat": "43.2053896",
            "code_postal": "31220",
            "commune": "CAZERES",
            "nom": "CHARCUTERIE  BOUCHERIE GROS",
            "adresse": "CHARCUTERIE  BOUCHERIE GROS\r\r\nRue du 4 Septembre\r\r\n31220 CAZERES",
            "long": "1.08511969"
        },
        {
            "lat": "43.2064766",
            "code_postal": "31220",
            "commune": "CAZERES",
            "nom": "CHARCUTERIE ROUX",
            "adresse": "CHARCUTERIE ROUX\r\r\n1 Rue Victor Hugo\r\r\n31220 CAZERES",
            "long": "1.08591362"
        },
        {
            "lat": "43.1072201",
            "code_postal": "31800",
            "commune": "SAINT-GAUDENS",
            "nom": "CORDONNIER LAGES RAYMOND",
            "adresse": "CORDONNIER LAGES RAYMOND\r\r\n11 Rue Victor Hugo\r\r\n31800 SAINT-GAUDENS",
            "long": "0.7216654"
        },
        {
            "lat": "43.1093648",
            "code_postal": "31800",
            "commune": "SAINT-GAUDENS",
            "nom": "CORDONNIER MULTISERVICE",
            "adresse": "CORDONNIER MULTISERVICE\r\r\n12 Avenue F. Mitterand\r\r\n31800 SAINT-GAUDENS",
            "long": "0.7292387"
        },
        {
            "lat": "43.1102760",
            "code_postal": "31800",
            "commune": "SAINT-GAUDENS",
            "nom": "CYCLES PUYMEGE",
            "adresse": "CYCLES PUYMEGE\r\r\n15 Avenue de Boulogne\r\r\n31800 SAINT-GAUDENS",
            "long": "0.72294492"
        },
        {
            "lat": "43.2437384",
            "code_postal": "31220",
            "commune": "SAINT-JULIEN-SUR-GARONNE",
            "nom": "DEPOT DE PAIN",
            "adresse": "DEPOT DE PAIN\r\r\nPlace des Ecoliers\r\r\n31220 SAINT-JULIEN-SUR-GARONNE",
            "long": "1.1531997"
        },
        {
            "lat": "43.0950915",
            "code_postal": "31800",
            "commune": "VALENTINE",
            "nom": "EPICERIE PAYSANNE",
            "adresse": "EPICERIE PAYSANNE\r\r\nPlace de l'Angla\r\r\n31800 VALENTINE",
            "long": "0.7022757"
        },
        {
            "lat": "43.1069810",
            "code_postal": "31800",
            "commune": "LABARTHE-INARD",
            "nom": "EPICERIE PROXY",
            "adresse": "EPICERIE PROXY\r\r\nRue des Pyrénées\r\r\n31800 LABARTHE-INARD",
            "long": "0.8366280"
        },
        {
            "lat": "43.2821893",
            "code_postal": "31220",
            "commune": "SAINT-JULIEN-SUR-GARONNE",
            "nom": "ESTELLE GRENIER",
            "adresse": "ESTELLE GRENIER\r\r\n149 Route de Cazères\r\r\n31220 SAINT-JULIEN-SUR-GARONNE",
            "long": "1.1936113"
        },
        {
            "lat": "43.5323025",
            "code_postal": "31120",
            "commune": "PORTET-SUR-GARONNE",
            "nom": "FRAIKIN LOCATIME",
            "adresse": "FRAIKIN LOCATIME \r\r\nParc d'activités du Bois Vert\r\r\n8 bis Avenue de la Saudrune\r\r\n31120 PORTET-SUR-GARONNE",
            "long": "1.3837902"
        },
        {
            "lat": "43.1785179",
            "code_postal": "31360",
            "commune": "BOUSSENS",
            "nom": "GARE DE BOUSSENS",
            "adresse": "GARE DE BOUSSENS\r\r\nAvenue de la Gare\r\r\n31360 BOUSSENS",
            "long": "0.9722160"
        },
        {
            "lat": "43.2052010",
            "code_postal": "31220",
            "commune": "CAZERES",
            "nom": "GARE DE CAZERES",
            "adresse": "GARE DE CAZERES\r\r\n31220 CAZERES",
            "long": "1.0866450"
        },
        {
            "lat": "43.1983260",
            "code_postal": "31220",
            "commune": "MARTRES-TOLOSANE",
            "nom": "GARE DE MARTRES TOLOSANE",
            "adresse": "GARE DE MARTRES TOLOSANE\r\r\n31220 MARTRES-TOLOSANE",
            "long": "1.0109120"
        },
        {
            "lat": "43.1076410",
            "code_postal": "31800",
            "commune": "LABARTHE-INARD",
            "nom": "GARE SNCF",
            "adresse": "GARE SNCF\r\r\n31800 LABARTHE-INARD",
            "long": "0.8370270"
        },
        {
            "lat": "43.1061120",
            "code_postal": "31800",
            "commune": "SAINT-GAUDENS",
            "nom": "GARE SNCF",
            "adresse": "GARE SNCF\r\r\nRue Victor Bouygues\r\r\n31800 SAINT-GAUDENS",
            "long": "0.7311270"
        },
        {
            "lat": "43.2085589",
            "code_postal": "31220",
            "commune": "CAZERES",
            "nom": "INTERMARCHE",
            "adresse": "INTERMARCHE\r\r\nRue de la Croix de l'Olivier\r\r\n31220 CAZERES",
            "long": "1.0900296"
        },
        {
            "lat": "43.2059724",
            "code_postal": "31220",
            "commune": "CAZERES",
            "nom": "LEADER PRICE",
            "adresse": "LEADER PRICE\r\r\nBoulevard jean Jaures\r\r\n31220 CAZERES",
            "long": "1.0846294"
        },
        {
            "lat": "43.2060357",
            "code_postal": "31220",
            "commune": "CAZERES",
            "nom": "L'ESCLOP",
            "adresse": "L'ESCLOP\r\r\n22 Boulevard Jean Jaures\r\r\n31220 CAZERES",
            "long": "1.0848651"
        },
        {
            "lat": "43.0266210",
            "code_postal": "31510",
            "commune": "SAINT-BERTRAND-DE-COMMINGES",
            "nom": "LIGNE 14 - LUCHON-MONTREJEAU-TOULOUSE",
            "adresse": "LIGNE 14 - LUCHON-MONTREJEAU-TOULOUSE\r\r\nArret \"Labroquere/St-Bertrand\"\r\r\n31510 SAINT-BERTRAND-DE-COMMINGES",
            "long": "0.5708600"
        },
        {
            "lat": "43.1068950",
            "code_postal": "31800",
            "commune": "SAINT-GAUDENS",
            "nom": "LIGNE 94 - LUCHON - MONTREJEAU - ST GAUDENS",
            "adresse": "LIGNE 94 - LUCHON - MONTREJEAU - ST GAUDENS\r\r\n31800 SAINT-GAUDENS",
            "long": "0.7237630"
        },
        {
            "lat": "43.1068950",
            "code_postal": "31800",
            "commune": "SAINT-GAUDENS",
            "nom": "LIGNE 98 - MONTREJEAU - BARBAZAN - ST GAUDENS",
            "adresse": "LIGNE 98 - MONTREJEAU - BARBAZAN - ST GAUDENS\r\r\n31800 SAINT-GAUDENS",
            "long": "0.7237630"
        },
        {
            "lat": "43.0711800",
            "code_postal": "31210",
            "commune": "GOURDAN-POLIGNAN",
            "nom": "MARCHE",
            "adresse": "MARCHE\r\r\n31210 GOURDAN-POLIGNAN",
            "long": "0.5739430"
        },
        {
            "lat": "43.0563950",
            "code_postal": "31510",
            "commune": "SEILHAN",
            "nom": "MARCHE",
            "adresse": "MARCHE\r\r\nPlace de la Croix du Bazert\r\r\n31510 SEILHAN",
            "long": "0.5874460"
        },
        {
            "lat": "43.2080102",
            "code_postal": "31220",
            "commune": "CAZERES",
            "nom": "MARCUZ",
            "adresse": "MARCUZ\r\r\n1 Place Clément Ader\r\r\n31220 CAZERES",
            "long": "1.0870166"
        },
        {
            "lat": "43.2109349",
            "code_postal": "31220",
            "commune": "CAZERES",
            "nom": "O FOURNIL",
            "adresse": "O FOURNIL\r\r\n32 Avenue Pasteur\r\r\n31220 CAZERES",
            "long": "1.0857416"
        },
        {
            "lat": "43.0811310",
            "code_postal": "31800",
            "commune": "LABARTHE-RIVIERE",
            "nom": "PHARMACIE BAUDOUX",
            "adresse": "PHARMACIE BAUDOUX\r\r\n8 Boulevard de Verdun\r\r\n31800 LABARTHE-RIVIERE",
            "long": "0.6707503"
        },
        {
            "lat": "43.2080200",
            "code_postal": "31220",
            "commune": "CAZERES",
            "nom": "PHARMACIE CENTRALE",
            "adresse": "PHARMACIE CENTRALE\r\r\nPlace Clément Ader\r\r\n31220 CAZERES",
            "long": "1.0872894"
        },
        {
            "lat": "",
            "code_postal": "31220",
            "commune": "CAZERES",
            "nom": "PHARMACIE DES PYRENEES",
            "adresse": "PHARMACIE DES PYRENEES\r\r\nMr Péres\r\r\n\r\r\nZone Carrefour\r\r\n31220 CAZERES",
            "long": ""
        },
        {
            "lat": "43.2066938",
            "code_postal": "31220",
            "commune": "CAZERES",
            "nom": "PHARMACIE LA HALLE",
            "adresse": "PHARMACIE LA HALLE\r\r\nPlace des martyrs de la Résistance\r\r\n31220 CAZERES",
            "long": "1.0861729"
        },
        {
            "lat": "43.1079924",
            "code_postal": "31800",
            "commune": "SAINT-GAUDENS",
            "nom": "PHARMACIE PORTET LES ARCEAUX",
            "adresse": "PHARMACIE PORTET LES ARCEAUX\r\r\n9 Place Jean Jaures\r\r\n31800 SAINT-GAUDENS",
            "long": "0.7248242"
        },
        {
            "lat": "43.0289111",
            "code_postal": "31510",
            "commune": "VALCABRERE",
            "nom": "POINT D'EAU POTABLE",
            "adresse": "POINT D'EAU POTABLE\r\r\n31510 VALCABRERE",
            "long": "0.58458217"
        },
        {
            "lat": "43.1780435",
            "code_postal": "31360",
            "commune": "BOUSSENS",
            "nom": "POINT D'EAU POTABLE",
            "adresse": "POINT D'EAU POTABLE\r\r\nA Coté des anciens ateliers\r\r\nAvenue Corps Franc Pommies\r\r\n31360 BOUSSENS",
            "long": "0.9719826"
        },
        {
            "lat": "43.1076410",
            "code_postal": "31800",
            "commune": "LABARTHE-INARD",
            "nom": "POINT D'EAU POTABLE",
            "adresse": "POINT D'EAU POTABLE\r\r\nChapelle Saint Genest\r\r\n31800 LABARTHE-INARD",
            "long": "0.8370270"
        },
        {
            "lat": "43.1052200",
            "code_postal": "31800",
            "commune": "ESTANCARBON",
            "nom": "POINT D'EAU POTABLE",
            "adresse": "POINT D'EAU POTABLE\r\r\nEcole\r\r\n31800 ESTANCARBON",
            "long": "0.7856689"
        },
        {
            "lat": "43.1076410",
            "code_postal": "31800",
            "commune": "LABARTHE-INARD",
            "nom": "POINT D'EAU POTABLE",
            "adresse": "POINT D'EAU POTABLE\r\r\nEglise\r\r\n31800 LABARTHE-INARD",
            "long": "0.8370270"
        },
        {
            "lat": "43.0267995",
            "code_postal": "31510",
            "commune": "SAINT-BERTRAND-DE-COMMINGES",
            "nom": "POINT D'EAU POTABLE",
            "adresse": "POINT D'EAU POTABLE\r\r\nMairie\r\r\n31510 SAINT-BERTRAND-DE-COMMINGES",
            "long": "0.57078239"
        },
        {
            "lat": "43.1076410",
            "code_postal": "31800",
            "commune": "LABARTHE-INARD",
            "nom": "POINT D'EAU POTABLE",
            "adresse": "POINT D'EAU POTABLE\r\r\nMairie\r\r\n31800 LABARTHE-INARD",
            "long": "0.8370270"
        },
        {
            "lat": "43.2066400",
            "code_postal": "31220",
            "commune": "PALAMINY",
            "nom": "POINT D'EAU POTABLE",
            "adresse": "POINT D'EAU POTABLE\r\r\nPrès de la Halle\r\r\n31220 PALAMINY",
            "long": "1.0865420"
        },
        {
            "lat": "43.2056863",
            "code_postal": "31220",
            "commune": "MARTRES-TOLOSANE",
            "nom": "POINT D'EAU POTABLE",
            "adresse": "POINT D'EAU POTABLE\r\r\nPrès du Cimetière\r\r\nRoute d'Alan\r\r\n31220 MARTRES-TOLOSANE",
            "long": "1.0096242"
        },
        {
            "lat": "43.1052200",
            "code_postal": "31800",
            "commune": "ESTANCARBON",
            "nom": "POINT D'EAU POTABLE",
            "adresse": "POINT D'EAU POTABLE\r\r\nSalle des fêtes\r\r\n31800 ESTANCARBON",
            "long": "0.7856689"
        },
        {
            "lat": "43.2052010",
            "code_postal": "31220",
            "commune": "CAZERES",
            "nom": "POINT D'EAU POTABLE",
            "adresse": "POINT D'EAU POTABLE\r\r\nSous la Halle\r\r\n31220 CAZERES",
            "long": "1.0866450"
        },
        {
            "lat": "43.1091650",
            "code_postal": "31800",
            "commune": "SAINT-GAUDENS",
            "nom": "SIMPLY MARKET",
            "adresse": "SIMPLY MARKET\r\r\nRue Lavoisier\r\r\n31800 SAINT-GAUDENS",
            "long": "0.7175740"
        },
        {
            "lat": "43.1989647",
            "code_postal": "31220",
            "commune": "MARTRES-TOLOSANE",
            "nom": "TAXI AMBULANCE",
            "adresse": "TAXI AMBULANCE\r\r\n1 Boulevard de la Magdeleine\r\r\n31220 MARTRES-TOLOSANE",
            "long": "1.0100436"
        },
        {
            "lat": "43.1068950",
            "code_postal": "31800",
            "commune": "SAINT-GAUDENS",
            "nom": "TAXI BRHOHAN",
            "adresse": "TAXI BRHOHAN\r\r\n31800 SAINT-GAUDENS",
            "long": "0.7237630"
        },
        {
            "lat": "43.0266210",
            "code_postal": "31510",
            "commune": "SAINT-BERTRAND-DE-COMMINGES",
            "nom": "TAXI DEVOS",
            "adresse": "TAXI DEVOS\r\r\n31510 SAINT-BERTRAND-DE-COMMINGES",
            "long": "0.5708600"
        },
        {
            "lat": "43.0266210",
            "code_postal": "31510",
            "commune": "SAINT-BERTRAND-DE-COMMINGES",
            "nom": "TAXI MACIAS",
            "adresse": "TAXI MACIAS\r\r\n31510 SAINT-BERTRAND-DE-COMMINGES",
            "long": "0.5708600"
        },
        {
            "lat": "43.4615740",
            "code_postal": "31600",
            "commune": "MURET",
            "nom": "TAXI MURETAIN",
            "adresse": "TAXI MURETAIN\r\r\n31600 MURET",
            "long": "1.3307100"
        },
        {
            "lat": "43.4615740",
            "code_postal": "31600",
            "commune": "MURET",
            "nom": "TAXI NUMERO1",
            "adresse": "TAXI NUMERO1\r\r\n31600 MURET",
            "long": "1.3307100"
        },
        {
            "lat": "43.1068950",
            "code_postal": "31800",
            "commune": "SAINT-GAUDENS",
            "nom": "TAXI PIERRE YVES",
            "adresse": "TAXI PIERRE YVES\r\r\n31800 SAINT-GAUDENS",
            "long": "0.7237630"
        },
        {
            "lat": "43.0266210",
            "code_postal": "31510",
            "commune": "SAINT-BERTRAND-DE-COMMINGES",
            "nom": "TAXI RIBES",
            "adresse": "TAXI RIBES\r\r\n31510 SAINT-BERTRAND-DE-COMMINGES",
            "long": "0.5708600"
        },
        {
            "lat": "43.2578969",
            "code_postal": "31310",
            "commune": "RIEUX-VOLVESTRE",
            "nom": "TAXI RIEUX",
            "adresse": "TAXI RIEUX\r\r\n11 Cité Bardoques\r\r\n31310 RIEUX-VOLVESTRE",
            "long": "1.1881408"
        },
        {
            "lat": "43.4615740",
            "code_postal": "31600",
            "commune": "MURET",
            "nom": "TAXI ROBIN",
            "adresse": "TAXI ROBIN\r\r\n31600 MURET",
            "long": "1.3307100"
        },
        {
            "lat": "43.1068950",
            "code_postal": "31800",
            "commune": "SAINT-GAUDENS",
            "nom": "TAXI VALERIE",
            "adresse": "TAXI VALERIE\r\r\n31800 SAINT-GAUDENS",
            "long": "0.7237630"
        },
        {
            "lat": "43.2576898",
            "code_postal": "31310",
            "commune": "RIEUX-VOLVESTRE",
            "nom": "VIRGINIE ALMANZOR",
            "adresse": "VIRGINIE ALMANZOR\r\r\n38 Rue de la Bastide\r\r\n31310 RIEUX-VOLVESTRE",
            "long": "1.1969998"
        },
        {
            "lat": "43.1761539",
            "code_postal": "31360",
            "commune": "BOUSSENS",
            "nom": "WC PUBLICS ET POINT D'EAU POTABLE",
            "adresse": "WC PUBLICS ET POINT D'EAU POTABLE\r\r\n1 Place de la Mairie\r\r\n31360 BOUSSENS",
            "long": "0.9726120"
        },
        {
            "lat": "43.2052010",
            "code_postal": "31220",
            "commune": "CAZERES",
            "nom": "WC PUBLICS ET POINT D'EAU POTABLE",
            "adresse": "WC PUBLICS ET POINT D'EAU POTABLE\r\r\nA la Mairie\r\r\n31220 CAZERES",
            "long": "1.0866450"
        },
        {
            "lat": "43.1141590",
            "code_postal": "31800",
            "commune": "ESTANCARBON",
            "nom": "WC PUBLICS ET POINT D'EAU POTABLE",
            "adresse": "WC PUBLICS ET POINT D'EAU POTABLE\r\r\nCimetière\r\r\n31800 ESTANCARBON",
            "long": "0.7203438"
        },
        {
            "lat": "43.2440690",
            "code_postal": "31220",
            "commune": "SAINT-JULIEN-SUR-GARONNE",
            "nom": "WC PUBLICS ET POINT D'EAU POTABLE",
            "adresse": "WC PUBLICS ET POINT D'EAU POTABLE\r\r\nContre la Mairie\r\r\n31220 SAINT-JULIEN-SUR-GARONNE",
            "long": "1.1535790"
        },
        {
            "lat": "",
            "code_postal": "31220",
            "commune": "CAZERES",
            "nom": "WC PUBLICS ET POINT D'EAU POTABLE",
            "adresse": "WC PUBLICS ET POINT D'EAU POTABLE\r\r\nDerrière le Trésor Public\r\r\n31220 CAZERES",
            "long": ""
        },
        {
            "lat": "",
            "code_postal": "31220",
            "commune": "CAZERES",
            "nom": "WC PUBLICS ET POINT D'EAU POTABLE",
            "adresse": "WC PUBLICS ET POINT D'EAU POTABLE\r\r\nPlace Colbato\r\r\n31220 CAZERES",
            "long": ""
        },
        {
            "lat": "43.2579497",
            "code_postal": "31310",
            "commune": "RIEUX-VOLVESTRE",
            "nom": "WC PUBLICS ET POINT D'EAU POTABLE",
            "adresse": "WC PUBLICS ET POINT D'EAU POTABLE\r\r\nPlace de la Cathédrale\r\r\n31310 RIEUX-VOLVESTRE",
            "long": "1.2027761"
        },
        {
            "lat": "43.2582084",
            "code_postal": "31310",
            "commune": "RIEUX-VOLVESTRE",
            "nom": "WC PUBLICS ET POINT D'EAU POTABLE",
            "adresse": "WC PUBLICS ET POINT D'EAU POTABLE\r\r\nPlace du Préau\r\r\n31310 RIEUX-VOLVESTRE",
            "long": "1.1957727"
        },
        {
            "lat": "43.0266210",
            "code_postal": "31510",
            "commune": "SAINT-BERTRAND-DE-COMMINGES",
            "nom": "WC PUBLICS",
            "adresse": "WC PUBLICS\r\r\n31510 SAINT-BERTRAND-DE-COMMINGES",
            "long": "0.5708600"
        },
        {
            "lat": "",
            "code_postal": "31800",
            "commune": "SAINT-GAUDENS",
            "nom": "WC PUBLICS",
            "adresse": "WC PUBLICS\r\r\nà Coté de la Montjoie\r\r\nPlateau de la Caoue\r\r\n31800 SAINT-GAUDENS",
            "long": ""
        },
        {
            "lat": "43.1076410",
            "code_postal": "31800",
            "commune": "LABARTHE-INARD",
            "nom": "WC PUBLICS",
            "adresse": "WC PUBLICS\r\r\nAccueil de la Mairie\r\r\n31800 LABARTHE-INARD",
            "long": "0.8370270"
        },
        {
            "lat": "43.1983260",
            "code_postal": "31220",
            "commune": "MARTRES-TOLOSANE",
            "nom": "WC PUBLICS",
            "adresse": "WC PUBLICS\r\r\nOffice de Tourisme\r\r\n31220 MARTRES-TOLOSANE",
            "long": "1.0109120"
        },
        {
            "lat": "43.1017175",
            "code_postal": "31800",
            "commune": "SAINT-GAUDENS",
            "nom": "WC PUBLICS",
            "adresse": "WC PUBLICS\r\r\nParking Lac de Sède\r\r\n31800 SAINT-GAUDENS",
            "long": "0.6968786"
        },
        {
            "lat": "43.1985590",
            "code_postal": "31220",
            "commune": "MARTRES-TOLOSANE",
            "nom": "WC PUBLICS",
            "adresse": "WC PUBLICS\r\r\nPrès de la Poste\r\r\nPlace de la Trinité\r\r\n31220 MARTRES-TOLOSANE",
            "long": "1.0096030"
        },
        {
            "lat": "43.1025060",
            "code_postal": "31800",
            "commune": "SAINT-GAUDENS",
            "nom": "WC PUBLICS",
            "adresse": "WC PUBLICS\r\r\nSkate Park\r\r\nBoulevard des Pyrénées\r\r\n31800 SAINT-GAUDENS",
            "long": "0.7165150"
        },
        {
            "lat": "43.3514206",
            "code_postal": "31410",
            "commune": "NOE",
            "nom": "A-A TAXI ILLICO",
            "adresse": "A-A TAXI ILLICO\r\r\n57  Ter Chemin de Lafitte\r\r\n31410 NOE",
            "long": "1.2614158"
        },
        {
            "lat": "43.4704003",
            "code_postal": "31600",
            "commune": "MURET",
            "nom": "AU BON PAIN D'AURIOL",
            "adresse": "AU BON PAIN D'AURIOL\r\r\n1 Bis Avenue du président Vincent Auriol\r\r\n31600 MURET",
            "long": "1.3322981"
        },
        {
            "lat": "43.3545749",
            "code_postal": "31410",
            "commune": "NOE",
            "nom": "AU COIN GOURAMND",
            "adresse": "AU COIN GOURAMND\r\r\n2 Place Pardailhan\r\r\n31410 NOE",
            "long": "1.2748377"
        },
        {
            "lat": "43.2956344",
            "code_postal": "31390",
            "commune": "CARBONNE",
            "nom": "AU PLAISIR GOURMAND",
            "adresse": "AU PLAISIR GOURMAND\r\r\n10 Place de la République\r\r\n31390 CARBONNE",
            "long": "1.2247308"
        },
        {
            "lat": "43.2952579",
            "code_postal": "31390",
            "commune": "CARBONNE",
            "nom": "BOULANGERIE GELIS",
            "adresse": "BOULANGERIE GELIS\r\r\n32 Rue Jean Jaures\r\r\n31390 CARBONNE",
            "long": "1.2255120"
        },
        {
            "lat": "43.4613375",
            "code_postal": "31600",
            "commune": "MURET",
            "nom": "BOULANGERIE LMC",
            "adresse": "BOULANGERIE LMC\r\r\n44 Avenue de l'Europe\r\r\n31600 MURET",
            "long": "1.3336996"
        },
        {
            "lat": "43.3795562",
            "code_postal": "31410",
            "commune": "MAUZAC",
            "nom": "BOULANGERIE O BLE DORE",
            "adresse": "BOULANGERIE O BLE DORE\r\r\nChemin Pradas\r\r\n31410 MAUZAC",
            "long": "1.2826709"
        },
        {
            "lat": "43.4625026",
            "code_postal": "31600",
            "commune": "MURET",
            "nom": "BOULANGERIE PARIZE",
            "adresse": "BOULANGERIE PARIZE\r\r\n27 Avenue Saint Germier\r\r\n31600 MURET",
            "long": "1.3216913"
        },
        {
            "lat": "43.0843036",
            "code_postal": "31210",
            "commune": "MARTRES-DE-RIVIERE",
            "nom": "BOULANGERIE",
            "adresse": "BOULANGERIE\r\r\n12 Avenue de Luchon\r\r\n31210 MARTRES-DE-RIVIERE",
            "long": "0.6560446"
        },
        {
            "lat": "43.3038837",
            "code_postal": "31390",
            "commune": "CARBONNE",
            "nom": "CARBONNE MULTISERVICES",
            "adresse": "CARBONNE MULTISERVICES\r\r\n37 Route de l'Arize\r\r\nGalerie Simply Market\r\r\n31390 CARBONNE",
            "long": "1.2207389"
        },
        {
            "lat": "43.2942260",
            "code_postal": "31390",
            "commune": "CARBONNE",
            "nom": "CORDOCLEF",
            "adresse": "CORDOCLEF\r\r\n3 Rue Jean Jaures\r\r\n31390 CARBONNE",
            "long": "1.2256709"
        },
        {
            "lat": "43.3460085",
            "code_postal": "31410",
            "commune": "NOE",
            "nom": "CORDONNIER",
            "adresse": "CORDONNIER\r\r\nDans la Galerie Magasin U\r\r\nChemin de la Maladrerie\r\r\nRD 617\r\r\n31410 NOE",
            "long": "1.2648484"
        },
        {
            "lat": "43.2965441",
            "code_postal": "31390",
            "commune": "CARBONNE",
            "nom": "DEPOT DE PAIN",
            "adresse": "DEPOT DE PAIN\r\r\n7 Bis Route de l'Arize\r\r\n31390 CARBONNE",
            "long": "1.2180619"
        },
        {
            "lat": "43.4656258",
            "code_postal": "31600",
            "commune": "MURET",
            "nom": "EPICERIE DE NUIT SAFARI",
            "adresse": "EPICERIE DE NUIT SAFARI\r\r\n119 Avenue jacques Douzans\r\r\n31600 MURET",
            "long": "1.3266849"
        },
        {
            "lat": "43.3753086",
            "code_postal": "31410",
            "commune": "MAUZAC",
            "nom": "EPICERIE VIVAL",
            "adresse": "EPICERIE VIVAL\r\r\n21 Route de Saint Sulpice\r\r\n31410 MAUZAC",
            "long": "1.2936317"
        },
        {
            "lat": "43.3369171",
            "code_postal": "31410",
            "commune": "CAPENS",
            "nom": "EPICERIE",
            "adresse": "EPICERIE\r\r\n3 Avenue Danflous\r\r\n31410 CAPENS",
            "long": "1.2597371"
        },
        {
            "lat": "43.4604844",
            "code_postal": "31600",
            "commune": "MURET",
            "nom": "FESTIVAL DES PAINS",
            "adresse": "FESTIVAL DES PAINS\r\r\n8 Place Mercadieu\r\r\n31600 MURET",
            "long": "1.3259270"
        },
        {
            "lat": "43.1052200",
            "code_postal": "31800",
            "commune": "ESTANCARBON",
            "nom": "INTERSPORTS",
            "adresse": "INTERSPORTS\r\r\n5 Boulevard des Landes\r\r\nZAC des Landes\r\r\n31800 ESTANCARBON",
            "long": "0.7856689"
        },
        {
            "lat": "43.2131",
            "code_postal": "31410",
            "commune": "MONTAUT",
            "nom": "JEANNETTE GUERIN",
            "adresse": "JEANNETTE GUERIN\r\r\n1 Ldt Devèze\r\r\n31410 MONTAUT",
            "long": "1.1022"
        },
        {
            "lat": "43.4579440",
            "code_postal": "31600",
            "commune": "MURET",
            "nom": "LA CORDONNERIE",
            "adresse": "LA CORDONNERIE\r\r\n13 Avenue des Pyrénées\r\r\n31600 MURET",
            "long": "1.3253475"
        },
        {
            "lat": "43.4603771",
            "code_postal": "31600",
            "commune": "MURET",
            "nom": "LA MIE D'ANAIS",
            "adresse": "LA MIE D'ANAIS\r\r\n45 Allées Niel\r\r\n31600 MURET",
            "long": "1.3243883"
        },
        {
            "lat": "43.4567775",
            "code_postal": "31600",
            "commune": "MURET",
            "nom": "LA PETITE MURETAINE",
            "adresse": "LA PETITE MURETAINE\r\r\n20 Avenue Roger Tissandié\r\r\n31600 MURET",
            "long": "1.3328009"
        },
        {
            "lat": "43.4622057",
            "code_postal": "31600",
            "commune": "MURET",
            "nom": "LA TRADITION",
            "adresse": "LA TRADITION\r\r\n4 Bis Avenue jacques Douzans\r\r\n31600 MURET",
            "long": "1.3250822"
        },
        {
            "lat": "43.4676802",
            "code_postal": "31600",
            "commune": "MURET",
            "nom": "LES FROMENTIERS",
            "adresse": "LES FROMENTIERS\r\r\n50 Avenue Jacques Douzans\r\r\n31600 MURET",
            "long": "1.3284896"
        },
        {
            "lat": "43.2643171",
            "code_postal": "31310",
            "commune": "RIEUX-VOLVESTRE",
            "nom": "LES MAITRES DU PAIN",
            "adresse": "LES MAITRES DU PAIN\r\r\n21 Route de Carbonne\r\r\n31310 RIEUX-VOLVESTRE",
            "long": "1.1940937"
        },
        {
            "lat": "43.3543495",
            "code_postal": "31410",
            "commune": "NOE",
            "nom": "L'OUSTAL DU JARDINIER",
            "adresse": "L'OUSTAL DU JARDINIER\r\r\n110 Route de Toulouse\r\r\n31410 NOE",
            "long": "1.2744539"
        },
        {
            "lat": "43.2952394",
            "code_postal": "31390",
            "commune": "CARBONNE",
            "nom": "L'OVALIE DU PAIN",
            "adresse": "L'OVALIE DU PAIN\r\r\n33 Rue Jean Jaures\r\r\n31390 CARBONNE",
            "long": "1.2253426"
        },
        {
            "lat": "43.5285590",
            "code_postal": "31120",
            "commune": "PORTET-SUR-GARONNE",
            "nom": "MARCHE DE PORTET SUR GARONNE",
            "adresse": "MARCHE DE PORTET SUR GARONNE\r\r\n31120 PORTET-SUR-GARONNE",
            "long": "1.3995350"
        },
        {
            "lat": "43.5072760",
            "code_postal": "31120",
            "commune": "PINSAGUEL",
            "nom": "MARCHE",
            "adresse": "MARCHE\r\r\n31120 PINSAGUEL",
            "long": "1.3901770"
        },
        {
            "lat": "43.4986050",
            "code_postal": "31120",
            "commune": "ROQUETTES",
            "nom": "MARCHE",
            "adresse": "MARCHE\r\r\n31120 ROQUETTES",
            "long": "1.3662460"
        },
        {
            "lat": "43.2052010",
            "code_postal": "31220",
            "commune": "CAZERES",
            "nom": "MARCHE",
            "adresse": "MARCHE\r\r\n31220 CAZERES",
            "long": "1.0866450"
        },
        {
            "lat": "43.1983260",
            "code_postal": "31220",
            "commune": "MARTRES-TOLOSANE",
            "nom": "MARCHE",
            "adresse": "MARCHE\r\r\n31220 MARTRES-TOLOSANE",
            "long": "1.0109120"
        },
        {
            "lat": "43.2440690",
            "code_postal": "31220",
            "commune": "SAINT-JULIEN-SUR-GARONNE",
            "nom": "MARCHE",
            "adresse": "MARCHE\r\r\n31220 SAINT-JULIEN-SUR-GARONNE",
            "long": "1.1535790"
        },
        {
            "lat": "43.2579210",
            "code_postal": "31310",
            "commune": "RIEUX-VOLVESTRE",
            "nom": "MARCHE",
            "adresse": "MARCHE\r\r\n31310 RIEUX-VOLVESTRE",
            "long": "1.2032120"
        },
        {
            "lat": "43.2948110",
            "code_postal": "31390",
            "commune": "CARBONNE",
            "nom": "MARCHE",
            "adresse": "MARCHE\r\r\n31390 CARBONNE",
            "long": "1.2257600"
        },
        {
            "lat": "43.4615740",
            "code_postal": "31600",
            "commune": "MURET",
            "nom": "MARCHE",
            "adresse": "MARCHE\r\r\n31600 MURET",
            "long": "1.3307100"
        },
        {
            "lat": "43.1068950",
            "code_postal": "31800",
            "commune": "SAINT-GAUDENS",
            "nom": "MARCHE",
            "adresse": "MARCHE\r\r\n31800 SAINT-GAUDENS",
            "long": "0.7237630"
        },
        {
            "lat": "43.0270602",
            "code_postal": "31510",
            "commune": "SAINT-BERTRAND-DE-COMMINGES",
            "nom": "MARCHE",
            "adresse": "MARCHE\r\r\nPlace du Plan\r\r\n31510 SAINT-BERTRAND-DE-COMMINGES",
            "long": "0.57495841"
        },
        {
            "lat": "43.1129150",
            "code_postal": "31360",
            "commune": "SAINT-MARTORY",
            "nom": "MARCHE",
            "adresse": "MARCHE\r\r\nPlace Nationale\r\r\n31360 SAINT-MARTORY",
            "long": "0.8489475"
        },
        {
            "lat": "43.2959856",
            "code_postal": "31390",
            "commune": "CARBONNE",
            "nom": "PETIT CASINO",
            "adresse": "PETIT CASINO\r\r\n20 Place de la République\r\r\n31390 CARBONNE",
            "long": "1.2245734"
        },
        {
            "lat": "43.4646175",
            "code_postal": "31600",
            "commune": "MURET",
            "nom": "PHARMACIE  NOTRE DAME",
            "adresse": "PHARMACIE  NOTRE DAME\r\r\n14 Boulevard de Lamasquère\r\r\n31600 MURET",
            "long": "1.3167808"
        },
        {
            "lat": "43.2597709",
            "code_postal": "31310",
            "commune": "RIEUX-VOLVESTRE",
            "nom": "PHARMACIE ALBERT",
            "adresse": "PHARMACIE ALBERT\r\r\n1 Chemin Chantemesse\r\r\n31310 RIEUX-VOLVESTRE",
            "long": "1.1911883"
        },
        {
            "lat": "43.3527390",
            "code_postal": "31410",
            "commune": "NOE",
            "nom": "PHARMACIE BESOMBES",
            "adresse": "PHARMACIE BESOMBES\r\r\n88 Bis Route de Toulouse\r\r\n31410 NOE",
            "long": "1.2734440"
        },
        {
            "lat": "43.4610803",
            "code_postal": "31600",
            "commune": "MURET",
            "nom": "PHARMACIE CLEMENT ADER",
            "adresse": "PHARMACIE CLEMENT ADER\r\r\n2 Bis Rue Frédéric Petit\r\r\n31600 MURET",
            "long": "1.3254593"
        },
        {
            "lat": "43.2945868",
            "code_postal": "31390",
            "commune": "CARBONNE",
            "nom": "PHARMACIE CROCHERIE",
            "adresse": "PHARMACIE CROCHERIE\r\r\n9 Rue jean jaures\r\r\n31390 CARBONNE",
            "long": "1.2254643"
        },
        {
            "lat": "43.4658990",
            "code_postal": "31600",
            "commune": "MURET",
            "nom": "PHARMACIE DE GRAEVE",
            "adresse": "PHARMACIE DE GRAEVE\r\r\n9 Rue Mones del Pujol\r\r\n31600 MURET",
            "long": "1.3312193"
        },
        {
            "lat": "43.4622057",
            "code_postal": "31600",
            "commune": "MURET",
            "nom": "PHARMACIE LAFAYETTE",
            "adresse": "PHARMACIE LAFAYETTE\r\r\n4 Avenue Jacques Douzans\r\r\n31600 MURET",
            "long": "1.3250822"
        },
        {
            "lat": "43.4561018",
            "code_postal": "31600",
            "commune": "MURET",
            "nom": "PHARMACIE LOZE",
            "adresse": "PHARMACIE LOZE\r\r\n21 Route d'Eaunes\r\r\n31600 MURET",
            "long": "1.3294689"
        },
        {
            "lat": "43.2955843",
            "code_postal": "31390",
            "commune": "CARBONNE",
            "nom": "PHARMACIE MOULIN-BLIN-RAFFY",
            "adresse": "PHARMACIE MOULIN-BLIN-RAFFY\r\r\n6 Place de la République\r\r\n31390 CARBONNE",
            "long": "1.2254227"
        },
        {
            "lat": "43.4487528",
            "code_postal": "31600",
            "commune": "MURET",
            "nom": "PHARMACIE MOUNES",
            "adresse": "PHARMACIE MOUNES\r\r\n5 Rue Mozart\r\r\n31600 MURET",
            "long": "1.3193847"
        },
        {
            "lat": "43.4686918",
            "code_postal": "31600",
            "commune": "MURET",
            "nom": "PHARMACIE OCCITANE",
            "adresse": "PHARMACIE OCCITANE\r\r\n25 Avenue du Président Vincent Auriol\r\r\n31600 MURET",
            "long": "1.3368681"
        },
        {
            "lat": "43.4595619",
            "code_postal": "31600",
            "commune": "MURET",
            "nom": "PHARMACIE RIVE DROITE",
            "adresse": "PHARMACIE RIVE DROITE\r\r\n40 Avenue Roger Tissandié\r\r\n31600 MURET",
            "long": "1.3361408"
        },
        {
            "lat": "43.3366280",
            "code_postal": "31410",
            "commune": "CAPENS",
            "nom": "POINT D'EAU POTABLE",
            "adresse": "POINT D'EAU POTABLE\r\r\nA la Halle face à l'Eglise\r\r\n31410 CAPENS",
            "long": "1.25735977"
        },
        {
            "lat": "43.4609094",
            "code_postal": "31600",
            "commune": "MURET",
            "nom": "POINT D'EAU POTABLE",
            "adresse": "POINT D'EAU POTABLE\r\r\nParc Clément Ader\r\r\n31600 MURET",
            "long": "1.3235759"
        },
        {
            "lat": "43.2948449",
            "code_postal": "31390",
            "commune": "CARBONNE",
            "nom": "POINT D'EAU POTABLE",
            "adresse": "POINT D'EAU POTABLE\r\r\nPlace de la Halle\r\r\n31390 CARBONNE",
            "long": "1.2258312"
        },
        {
            "lat": "43.2924845",
            "code_postal": "31390",
            "commune": "CARBONNE",
            "nom": "REGIE DE TRANSPORTS DE CARBONNE",
            "adresse": "REGIE DE TRANSPORTS DE CARBONNE\r\r\n18 Chemin de Naudon\r\r\n31390 CARBONNE",
            "long": "1.2013334"
        },
        {
            "lat": "",
            "code_postal": "31390",
            "commune": "CARBONNE",
            "nom": "TAXI CARBONNE",
            "adresse": "TAXI CARBONNE\r\r\n15 Chemin de Laveran\r\r\nZI Naudon\r\r\n31390 CARBONNE",
            "long": ""
        },
        {
            "lat": "43.3711057",
            "code_postal": "31410",
            "commune": "MAUZAC",
            "nom": "TAXI JULIEN",
            "adresse": "TAXI JULIEN\r\r\n10 Lot des Platanes\r\r\n31410 MAUZAC",
            "long": "1.2895449"
        },
        {
            "lat": "43.3711057",
            "code_postal": "31410",
            "commune": "MAUZAC",
            "nom": "TAXI MARIE SOPHIE",
            "adresse": "TAXI MARIE SOPHIE\r\r\n10 Lot des Platanes\r\r\n31410 MAUZAC",
            "long": "1.2895449"
        },
        {
            "lat": "43.3772127",
            "code_postal": "31410",
            "commune": "MAUZAC",
            "nom": "TAXI OLIVIER",
            "adresse": "TAXI OLIVIER\r\r\n21 Chemin Douze\r\r\n31410 MAUZAC",
            "long": "1.2981419"
        },
        {
            "lat": "43.3035065",
            "code_postal": "31390",
            "commune": "CARBONNE",
            "nom": "TAXI XAVIER",
            "adresse": "TAXI XAVIER\r\r\nAvenue de Toulouse\r\r\n31390 CARBONNE",
            "long": "1.2244510"
        },
        {
            "lat": "43.4676675",
            "code_postal": "31600",
            "commune": "MURET",
            "nom": "UNIVERS PHARMACIE",
            "adresse": "UNIVERS PHARMACIE\r\r\n153 Avenue Jacques Douzans\r\r\n31600 MURET",
            "long": "1.3279057"
        },
        {
            "lat": "43.3540660",
            "code_postal": "31410",
            "commune": "NOE",
            "nom": "WC PUBLICS ET POINT D'EAU POTABLE",
            "adresse": "WC PUBLICS ET POINT D'EAU POTABLE\r\r\nAllées des Fontaines\r\r\n31410 NOE",
            "long": "1.2751275"
        },
        {
            "lat": "43.3759288",
            "code_postal": "31410",
            "commune": "MAUZAC",
            "nom": "WC PUBLICS ET POINT D'EAU POTABLE",
            "adresse": "WC PUBLICS ET POINT D'EAU POTABLE\r\r\nFace à l'Epicerie\r\r\nAllée des Platanes\r\r\n31410 MAUZAC",
            "long": "1.2912417"
        },
        {
            "lat": "43.4633702",
            "code_postal": "31600",
            "commune": "MURET",
            "nom": "WC PUBLICS ET POINT D'EAU POTABLE",
            "adresse": "WC PUBLICS ET POINT D'EAU POTABLE\r\r\nParc Jean Jaurès\r\r\n31600 MURET",
            "long": "1.3278438"
        },
        {
            "lat": "43.2962310",
            "code_postal": "31390",
            "commune": "CARBONNE",
            "nom": "WC PUBLICS ET POINT D'EAU POTABLE",
            "adresse": "WC PUBLICS ET POINT D'EAU POTABLE\r\r\nPlace de la République\r\r\n31390 CARBONNE",
            "long": "1.2248429"
        },
        {
            "lat": "43.2923099",
            "code_postal": "31390",
            "commune": "CARBONNE",
            "nom": "WC PUBLICS ET POINT D'EAU POTABLE",
            "adresse": "WC PUBLICS ET POINT D'EAU POTABLE\r\r\nPlace de l'Eglise\r\r\n31390 CARBONNE",
            "long": "1.2263814"
        },
        {
            "lat": "43.3561476",
            "code_postal": "31410",
            "commune": "MONTAUT",
            "nom": "WC PUBLICS ET POINT D'EAU POTABLE",
            "adresse": "WC PUBLICS ET POINT D'EAU POTABLE\r\r\nPrés de la Mairie\r\r\n31410 MONTAUT",
            "long": "1.2956685"
        },
        {
            "lat": "43.3172100",
            "code_postal": "31390",
            "commune": "MARQUEFAVE",
            "nom": "WC PUBLICS ET POINT D'EAU POTABLE",
            "adresse": "WC PUBLICS ET POINT D'EAU POTABLE\r\r\nSous l'Eglise\r\r\n31390 MARQUEFAVE",
            "long": "1.2454630"
        },
        {
            "lat": "43.3561533",
            "code_postal": "31410",
            "commune": "CAPENS",
            "nom": "WC PUBLICS",
            "adresse": "WC PUBLICS\r\r\nPlace de l'Eglise\r\r\n31410 CAPENS",
            "long": "1.2963558"
        },
        {
            "lat": "43.4594920",
            "code_postal": "31600",
            "commune": "MURET",
            "nom": "ZIMMERMANN",
            "adresse": "ZIMMERMANN\r\r\n7 Rue Jean Jaures\r\r\n31600 MURET",
            "long": "1.3269207"
        },
        {
            "lat": "43.1933009",
            "code_postal": "31220",
            "commune": "MARTRES-TOLOSANE",
            "nom": "ALDI SUPERMARCHE",
            "adresse": "ALDI SUPERMARCHE\r\r\nAvenue des Pyrénées\r\r\n31220 MARTRES-TOLOSANE",
            "long": "0.9968850"
        },
        {
            "lat": "43.2000565",
            "code_postal": "31220",
            "commune": "MARTRES-TOLOSANE",
            "nom": "BOUCHERIE CHARCUTERIE",
            "adresse": "BOUCHERIE CHARCUTERIE\r\r\n22 Boulevard du Nord\r\r\n31220 MARTRES-TOLOSANE",
            "long": "1.0113232"
        },
        {
            "lat": "43.1424317",
            "code_postal": "31360",
            "commune": "SAINT-MARTORY",
            "nom": "BOUCHERIE CHEZ POLO",
            "adresse": "BOUCHERIE CHEZ POLO\r\r\n4 Rue du Pont\r\r\n31360 SAINT-MARTORY",
            "long": "0.9298404"
        },
        {
            "lat": "",
            "code_postal": "31360",
            "commune": "SAINT-MARTORY",
            "nom": "BOULANGERIE LE PAIN DE NATTE",
            "adresse": "BOULANGERIE LE PAIN DE NATTE\r\r\n4 Avenue Norbert Casteret\r\r\n31360 SAINT-MARTORY",
            "long": ""
        },
        {
            "lat": "43.1749852",
            "code_postal": "31360",
            "commune": "BOUSSENS",
            "nom": "BOULANGERIE PATISSERIE BOUSSENS",
            "adresse": "BOULANGERIE PATISSERIE BOUSSENS\r\r\n9 Avenue du 11 Novembre 1918\r\r\n31360 BOUSSENS",
            "long": "0.9711351"
        },
        {
            "lat": "43.1981651",
            "code_postal": "31220",
            "commune": "MARTRES-TOLOSANE",
            "nom": "BOULANGERIE PATISSERIE",
            "adresse": "BOULANGERIE PATISSERIE\r\r\n7 Avenue des Pyrénées\r\r\n31220 MARTRES-TOLOSANE",
            "long": "1.0093144"
        },
        {
            "lat": "43.1424112",
            "code_postal": "31360",
            "commune": "SAINT-MARTORY",
            "nom": "EPICERIE CHEZ ALAIN",
            "adresse": "EPICERIE CHEZ ALAIN\r\r\n7 Rue du Pont\r\r\n31360 SAINT-MARTORY",
            "long": "0.9300580"
        },
        {
            "lat": "43.1985668",
            "code_postal": "31220",
            "commune": "MARTRES-TOLOSANE",
            "nom": "LEADER PRICE",
            "adresse": "LEADER PRICE\r\r\n2 Boulveard de la Magdeleine\r\r\n31220 MARTRES-TOLOSANE",
            "long": "1.0101820"
        },
        {
            "lat": "43.1749852",
            "code_postal": "31360",
            "commune": "BOUSSENS",
            "nom": "PHARMACIE CASTAN",
            "adresse": "PHARMACIE CASTAN\r\r\n9 Ter Avenue du 11 Novembre 1918\r\r\n31360 BOUSSENS",
            "long": "0.9711351"
        },
        {
            "lat": "43.1983887",
            "code_postal": "31220",
            "commune": "MARTRES-TOLOSANE",
            "nom": "PHARMACIE",
            "adresse": "PHARMACIE\r\r\n16 Boulevard de la Magdeleine\r\r\n31220 MARTRES-TOLOSANE",
            "long": "1.0111849"
        },
        {
            "lat": "43.1933009",
            "code_postal": "31220",
            "commune": "MARTRES-TOLOSANE",
            "nom": "SUPER U",
            "adresse": "SUPER U\r\r\nAvenue des Pyrénées\r\r\n31220 MARTRES-TOLOSANE",
            "long": "0.9968850"
        },
        {
            "lat": "",
            "code_postal": "31360",
            "commune": "BOUSSENS",
            "nom": "SUPERETTE VIVAL",
            "adresse": "SUPERETTE VIVAL\r\r\nMr et Mme DAUBERTE Philippe\r\r\nRue du 11 Novembre 1918\r\r\n31360 BOUSSENS",
            "long": ""
        },
        {
            "lat": "43.1423482",
            "code_postal": "31360",
            "commune": "SAINT-MARTORY",
            "nom": "TARI - CAUJOLLE PHARMACIE SNC",
            "adresse": "TARI - CAUJOLLE PHARMACIE SNC\r\r\nMmes CAUJOLLE\r\r\n6 Avenue Norbert Casteret\r\r\n31360 SAINT-MARTORY",
            "long": "0.92908431"
        },
        {
            "lat": "43.2024021",
            "code_postal": "31220",
            "commune": "PALAMINY",
            "nom": "BOULANGERIE",
            "adresse": "BOULANGERIE\r\r\n1 Place de l'Esplanade\r\r\n31220 PALAMINY",
            "long": "1.0692227"
        },
        {
            "lat": "43.4627703",
            "code_postal": "31600",
            "commune": "MURET",
            "nom": "CARREFOUR CITY",
            "adresse": "CARREFOUR CITY\r\r\n27 Avenue Jacques Douzans\r\r\n31600 MURET",
            "long": "1.3246719"
        },
        {
            "lat": "43.4584851",
            "code_postal": "31600",
            "commune": "MURET",
            "nom": "SPAR 7/7",
            "adresse": "SPAR 7/7\r\r\n7 Bis Avenue des Pyrénées\r\r\n31600 MURET",
            "long": "1.3256905"
        },
        {
            "lat": "43.4601709",
            "code_postal": "31600",
            "commune": "MURET",
            "nom": "EPICERIE 7/7",
            "adresse": "EPICERIE 7/7\r\r\n24 Rue Pierre Fons\r\r\n31600 MURET",
            "long": "1.3262573"
        },
        {
            "lat": "43.2578244",
            "code_postal": "31310",
            "commune": "RIEUX-VOLVESTRE",
            "nom": "CYCLES FRIWHEEL",
            "adresse": "CYCLES FRIWHEEL\r\r\nLaurent FRIEBEL\r\r\n1 Route de Latrape \r\r\n31310 RIEUX-VOLVESTRE",
            "long": "1.20111605"
        },
        {
            "lat": "43.527928",
            "code_postal": "31120",
            "commune": "PORTET-SUR-GARONNE",
            "nom": "SNCF / GARE PORTET SAINT SIMON",
            "adresse": "SNCF / GARE PORTET SAINT SIMON\r\r\nAvenue de la Gare\r\r\n31120 PORTET-SUR-GARONNE",
            "long": "1.38920699"
        }
    ],
    "hotels": [
        {
            "lat": "43.1793566",
            "code_postal": "31360",
            "commune": "BOUSSENS",
            "nom": "HOTEL DU LAC",
            "adresse": "7 Promenade du Lac\r\r\n31360 BOUSSENS",
            "long": "0.97472471"
        },
        {
            "lat": "43.1142038",
            "code_postal": "31800",
            "commune": "ESTANCARBON",
            "nom": "IBIS BUDGET SAINT GAUDENS",
            "adresse": "3 Avenue du Pic du Midi\r\r\nZAC des Landes\r\r\n31800 ESTANCARBON",
            "long": "0.76038371"
        },
        {
            "lat": "43.0711800",
            "code_postal": "31210",
            "commune": "GOURDAN-POLIGNAN",
            "nom": "HOTEL DU PONT",
            "adresse": "4 Place du Pont \r\r\n31210 GOURDAN-POLIGNAN",
            "long": "0.5739430"
        },
        {
            "lat": "43.1076254",
            "code_postal": "31800",
            "commune": "LABARTHE-INARD",
            "nom": "HOSTELLERIE DU PARC",
            "adresse": "86 Route Départementale 817\r\r\n31800 LABARTHE-INARD",
            "long": "0.83642005"
        },
        {
            "lat": "43.1133921",
            "code_postal": "31800",
            "commune": "LABARTHE-INARD",
            "nom": "HOTEL LE CUU LONG",
            "adresse": "30 Route départementale 817\r\r\n31800 LABARTHE-INARD",
            "long": "0.84620550"
        },
        {
            "lat": "43.1971672",
            "code_postal": "31220",
            "commune": "MARTRES-TOLOSANE",
            "nom": "HOTEL CASTET",
            "adresse": "44 Avenue de la Gare\r\r\n31220 MARTRES-TOLOSANE",
            "long": "1.00799560"
        },
        {
            "lat": "43.4609792",
            "code_postal": "31600",
            "commune": "MURET",
            "nom": "FASTHOTEL",
            "adresse": "3 Impasse J. Monod\r\r\nZAC Porte de Muret\r\r\n31600 MURET",
            "long": "1.3251651"
        },
        {
            "lat": "43.4715477",
            "code_postal": "31600",
            "commune": "MURET",
            "nom": "HOTEL CLEMENT ADER",
            "adresse": "70 Avenue Jacques Douzans\r\r\n31600 MURET",
            "long": "1.33081028"
        },
        {
            "lat": "43.3539160",
            "code_postal": "31410",
            "commune": "NOE",
            "nom": "HOTEL DE L'ARCHE DE NOE",
            "adresse": "2 Place de la Bascule\r\r\n31410 NOE",
            "long": "1.27432369"
        },
        {
            "lat": "43.3537894",
            "code_postal": "31410",
            "commune": "NOE",
            "nom": "HOTEL L'ARCHE DE NOE",
            "adresse": "2 Place de la Bascule\r\r\n31410 NOE",
            "long": "1.27433441"
        },
        {
            "lat": "43.509847",
            "code_postal": "31600",
            "commune": "PINSAGUEL",
            "nom": "HOTEL AL PESCOFI",
            "adresse": "57 Rue de l'Andorre\r\r\n31600 PINSAGUEL",
            "long": "1.388840"
        },
        {
            "lat": "43.5441598",
            "code_postal": "31120",
            "commune": "PORTET-SUR-GARONNE",
            "nom": "HOTEL LE TREFLE",
            "adresse": "38-40 Route d'Espagne\r\r\n31120 PORTET-SUR-GARONNE",
            "long": "1.4167823"
        },
        {
            "lat": "43.5365262",
            "code_postal": "31120",
            "commune": "PORTET-SUR-GARONNE",
            "nom": "HOTEL OCTEL",
            "adresse": "Centre Secondo\r\r\n8 Chemin des Genêts\r\r\n31120 PORTET-SUR-GARONNE",
            "long": "1.4063052"
        },
        {
            "lat": "43.5299709",
            "code_postal": "31120",
            "commune": "PORTET-SUR-GARONNE",
            "nom": "HOTEL PREMIERE CLASSE",
            "adresse": "5 Boulevard de l'Europe\r\r\n31120 PORTET-SUR-GARONNE",
            "long": "1.40341891"
        },
        {
            "lat": "43.5404589",
            "code_postal": "31120",
            "commune": "PORTET-SUR-GARONNE",
            "nom": "HOTEL RESTAURANT L'HOTAN",
            "adresse": "80 Route d'Espagne\r\r\n31120 PORTET-SUR-GARONNE",
            "long": "1.4139672"
        },
        {
            "lat": "43.0269288",
            "code_postal": "31510",
            "commune": "SAINT-BERTRAND-DE-COMMINGES",
            "nom": "HOTEL DU COMMINGES",
            "adresse": "Parvis de la Cathédrale\r\r\n31510 SAINT-BERTRAND-DE-COMMINGES",
            "long": "0.57039596"
        },
        {
            "lat": "43.0269581",
            "code_postal": "31510",
            "commune": "SAINT-BERTRAND-DE-COMMINGES",
            "nom": "HOTEL L'OPPIDUM",
            "adresse": "Rue de la Poste\r\r\nVille Haute\r\r\n31510 SAINT-BERTRAND-DE-COMMINGES",
            "long": "0.57174511"
        },
        {
            "lat": "43.1100169",
            "code_postal": "31800",
            "commune": "SAINT-GAUDENS",
            "nom": "HOTEL LA GRANDE HALLE",
            "adresse": "5 Place du Foirail\r\r\n31800 SAINT-GAUDENS",
            "long": "0.72379206"
        },
        {
            "lat": "43.1100828",
            "code_postal": "31800",
            "commune": "SAINT-GAUDENS",
            "nom": "HOTEL LE COMMERCE",
            "adresse": "2 Avenue de Boulogne\r\r\n31800 SAINT-GAUDENS",
            "long": "0.72341769"
        },
        {
            "lat": "43.1098226",
            "code_postal": "31800",
            "commune": "SAINT-GAUDENS",
            "nom": "LE PEDUSSAUT",
            "adresse": "9 Avenue de Boulogne\r\r\n31800 SAINT-GAUDENS",
            "long": "0.7232547"
        },
        {
            "lat": "43.1075801",
            "code_postal": "31800",
            "commune": "SAINT-GAUDENS",
            "nom": "L'ESPLANADE",
            "adresse": "7 Place de Mas St Pierre\r\r\n31800 SAINT-GAUDENS",
            "long": "0.72547125"
        },
        {
            "lat": "43.1409106",
            "code_postal": "31360",
            "commune": "SAINT-MARTORY",
            "nom": "HOTEL DES SPORTS CHEZ KIKI",
            "adresse": "1 Avenue des Pyrénées\r\r\n31360 SAINT-MARTORY",
            "long": "0.93116589"
        }
    ],
    "campings": [
        {
            "lat": "43.1784071",
            "code_postal": "31360",
            "commune": "BOUSSENS",
            "nom": "CAMPING MUNICIPAL DU LAC",
            "adresse": "CAMPING MUNICIPAL DU LAC\r\r\n5 Promenade du Lac\r\r\n31360 BOUSSENS",
            "long": "0.97458610"
        },
        {
            "lat": "43.2062723",
            "code_postal": "31220",
            "commune": "CAZERES",
            "nom": "AIRE DE SERVICE BORD DE GARONNE",
            "adresse": "AIRE DE SERVICE BORD DE GARONNE\r\r\nPlace Colbatto\r\r\n31220 CAZERES",
            "long": "1.08978854"
        },
        {
            "lat": "43.0616291",
            "code_postal": "31210",
            "commune": "GOURDAN-POLIGNAN",
            "nom": "AIRE DE SERVICE",
            "adresse": "AIRE DE SERVICE\r\r\nRoute de Luchon\r\r\nParking du Super U - ZI Lane Bazert\r\r\n31210 GOURDAN-POLIGNAN",
            "long": "0.59099793"
        },
        {
            "lat": "43.2022560",
            "code_postal": "31220",
            "commune": "MARTRES-TOLOSANE",
            "nom": "AIRE MUNICIPALE CAMPING-CAR",
            "adresse": "AIRE MUNICIPALE CAMPING-CAR\r\r\nRue du Pagès\r\r\n31220 MARTRES-TOLOSANE",
            "long": "1.01102190"
        },
        {
            "lat": "43.18772",
            "code_postal": "31220",
            "commune": "MARTRES-TOLOSANE",
            "nom": "AIRE DE CAMPING-CAR ST VIDIAN",
            "adresse": "AIRE DE CAMPING-CAR ST VIDIAN\r\r\nChez Mme DESCUNS Jeannine\r\r\n\r\r\nSaint-Vidian\r\r\n31220 MARTRES-TOLOSANE",
            "long": "1.00223833"
        },
        {
            "lat": "43.1905",
            "code_postal": "31220",
            "commune": "MARTRES-TOLOSANE",
            "nom": "CAMPING SITES & PAYSAGES LE MOULIN",
            "adresse": "CAMPING SITES & PAYSAGES LE MOULIN\r\r\nLe Moulin\r\r\n31220 MARTRES-TOLOSANE",
            "long": "1.0181"
        },
        {
            "lat": "43.1975066",
            "code_postal": "31220",
            "commune": "PALAMINY",
            "nom": "CAMPING LE PLANTAUREL",
            "adresse": "CAMPING LE PLANTAUREL\r\r\nRoute de Mauran\r\r\n31220 PALAMINY",
            "long": "1.06713113"
        },
        {
            "lat": "43.2079790",
            "code_postal": "31310",
            "commune": "RIEUX-VOLVESTRE",
            "nom": "AIRE D'ETAPE CAMPING CAR PARK",
            "adresse": "AIRE D'ETAPE CAMPING CAR PARK\r\r\nLe plan d'eau\r\r\n31310 RIEUX-VOLVESTRE",
            "long": "1.1191386"
        },
        {
            "lat": "43.2703012",
            "code_postal": "31310",
            "commune": "RIEUX-VOLVESTRE",
            "nom": "CAMPING DU PLAN D'EAU",
            "adresse": "CAMPING DU PLAN D'EAU\r\r\nLe plan d'eau\r\r\n31310 RIEUX-VOLVESTRE",
            "long": "1.17931950"
        },
        {
            "lat": "43.0291217",
            "code_postal": "31510",
            "commune": "SAINT-BERTRAND-DE-COMMINGES",
            "nom": "CAMPING ES PIBOUS",
            "adresse": "CAMPING ES PIBOUS\r\r\nChemin de Saint Just\r\r\n31510 SAINT-BERTRAND-DE-COMMINGES",
            "long": "0.57832717"
        },
        {
            "lat": "43.1099833",
            "code_postal": "31800",
            "commune": "SAINT-GAUDENS",
            "nom": "AIRE DE SERVICES CAMPING-CARS LE BELVEDERE DES PYRENEES",
            "adresse": "AIRE DE SERVICES CAMPING-CARS LE BELVEDERE DES PYRENEES\r\r\n1 Rue des Chanteurs du Comminges\r\r\n31800 SAINT-GAUDENS",
            "long": "0.7076159"
        },
        {
            "lat": "43.1419015",
            "code_postal": "31360",
            "commune": "SAINT-MARTORY",
            "nom": "AIRE DE SERVICE",
            "adresse": "AIRE DE SERVICE\r\r\nPlace Nationale\r\r\n31360 SAINT-MARTORY",
            "long": "0.92892639"
        }
    ],
    "loisirs": [
        {
            "lat": "43.4497203",
            "code_postal": "31600",
            "commune": "MURET",
            "nom": "AERODROME DE MURET-LHERM",
            "adresse": "AERODROME DE MURET-LHERM\r\r\nAérodrome de Muret Lherm\r\r\n31600 MURET",
            "long": "1.26277500"
        },
        {
            "lat": "43.4529730",
            "code_postal": "31600",
            "commune": "MURET",
            "nom": "BASE DE LOISIRS DE BRIOUDES",
            "adresse": "BASE DE LOISIRS DE BRIOUDES\r\r\nChemin de Brioudes\r\r\n31600 MURET",
            "long": "1.3519100"
        },
        {
            "lat": "43.1096809",
            "code_postal": "31800",
            "commune": "SAINT-GAUDENS",
            "nom": "CAFE BAR LE PILAT",
            "adresse": "CAFE BAR LE PILAT\r\r\n12 Avenue Anselme Arrieu\r\r\n31800 SAINT-GAUDENS",
            "long": "0.7201525"
        },
        {
            "lat": "43.4852949",
            "code_postal": "31600",
            "commune": "MURET",
            "nom": "DANCING ODEON",
            "adresse": "DANCING ODEON\r\r\n11 Rue Marclan\r\r\n31600 MURET",
            "long": "1.3341843"
        },
        {
            "lat": "43.1073652",
            "code_postal": "31800",
            "commune": "SAINT-GAUDENS",
            "nom": "HIPSTER CAFE OFFICIEL",
            "adresse": "HIPSTER CAFE OFFICIEL\r\r\nPlace Napoléon\r\r\n31800 SAINT-GAUDENS",
            "long": "0.72515428"
        },
        {
            "lat": "43.4538799",
            "code_postal": "31600",
            "commune": "MURET",
            "nom": "LAC DES BONNETS",
            "adresse": "LAC DES BONNETS\r\r\nRue Louison Bobet\r\r\n31600 MURET",
            "long": "1.27644150"
        },
        {
            "lat": "43.106895",
            "code_postal": "31800",
            "commune": "SAINT-GAUDENS",
            "nom": "LE FRANCAIS",
            "adresse": "LE FRANCAIS\r\r\nPlace Napoléon\r\r\n31800 SAINT-GAUDENS",
            "long": "0.72376299"
        },
        {
            "lat": "",
            "code_postal": "31600",
            "commune": "MURET",
            "nom": "L'ESCALA",
            "adresse": "L'ESCALA \r\r\n5 Rue Périoles \r\r\n31600 MURET",
            "long": ""
        },
        {
            "lat": "43.1156950",
            "code_postal": "31800",
            "commune": "SAINT-GAUDENS",
            "nom": "PISCINE AQUALUDIQUE",
            "adresse": "PISCINE AQUALUDIQUE\r\r\nRue Olivier de Serres \r\r\n31800 SAINT-GAUDENS",
            "long": "0.7297600"
        },
        {
            "lat": "43.4428077",
            "code_postal": "31600",
            "commune": "MURET",
            "nom": "PLAN D'EAU DU FOUR DE LOUGE",
            "adresse": "PLAN D'EAU DU FOUR DE LOUGE\r\r\nChemin des Lacs\r\r\n31600 MURET",
            "long": "1.30692672"
        },
        {
            "lat": "43.1055070",
            "code_postal": "31800",
            "commune": "SAINT-GAUDENS",
            "nom": "SAINT GO",
            "adresse": "SAINT GO\r\r\n13 Boulevard Gambetta\r\r\n31800 SAINT-GAUDENS",
            "long": "0.7292720"
        },
        {
            "lat": "43.0412109",
            "code_postal": "31510",
            "commune": "LABROQUERE",
            "nom": "SALLE D'ESCALADE - ENTRE TERRE ET CIEL",
            "adresse": "SALLE D'ESCALADE - ENTRE TERRE ET CIEL\r\r\nAncienne Ecole\r\r\n31510 LABROQUERE",
            "long": "0.5903320"
        },
        {
            "lat": "43.1204906",
            "code_postal": "31800",
            "commune": "SAINT-GAUDENS",
            "nom": "BOWLING DES PYRENEES",
            "adresse": "BOWLING DES PYRENEES\r\r\n71 Avenue de l'Isle\r\r\n31800 SAINT-GAUDENS",
            "long": "0.7258756"
        },
        {
            "lat": "43.1783545",
            "code_postal": "31360",
            "commune": "BOUSSENS",
            "nom": "PISCINE MUNICIPALE DE BOUSSENS",
            "adresse": "PISCINE MUNICIPALE DE BOUSSENS\r\r\nPromenade du Lac\r\r\n31360 BOUSSENS",
            "long": "0.97451919"
        },
        {
            "lat": "43.2033490",
            "code_postal": "31220",
            "commune": "CAZERES",
            "nom": "PISCINE MUNICIPALE JEAN LECUSSAN DE CAZERES",
            "adresse": "PISCINE MUNICIPALE JEAN LECUSSAN DE CAZERES\r\r\nRue du Plantaurel\r\r\n31220 CAZERES",
            "long": "1.0736710"
        },
        {
            "lat": "43.1095462",
            "code_postal": "31800",
            "commune": "SAINT-GAUDENS",
            "nom": "THEATRE JEAN MARMIGNON",
            "adresse": "THEATRE JEAN MARMIGNON\r\r\n2 Place Hippolyte Ducos\r\r\n31800 SAINT-GAUDENS",
            "long": "0.72545769"
        },
        {
            "lat": "43.2579210",
            "code_postal": "31310",
            "commune": "RIEUX-VOLVESTRE",
            "nom": "PISCINE COUVERTE",
            "adresse": "PISCINE COUVERTE \r\r\n31310 RIEUX-VOLVESTRE",
            "long": "1.2032120"
        },
        {
            "lat": "43.2604798",
            "code_postal": "31310",
            "commune": "RIEUX-VOLVESTRE",
            "nom": "PLAN D'EAU DE RIEUX",
            "adresse": "PLAN D'EAU DE RIEUX\r\r\n31310 RIEUX-VOLVESTRE",
            "long": "1.19678542"
        },
        {
            "lat": "43.3200439",
            "code_postal": "31390",
            "commune": "CARBONNE",
            "nom": "LAC DE BARBIS",
            "adresse": "LAC DE BARBIS\r\r\nChemin de Nougaret\r\r\n31390 CARBONNE",
            "long": "1.2030376"
        },
        {
            "lat": "43.0962038",
            "code_postal": "31800",
            "commune": "LABARTHE-INARD",
            "nom": "LAC DE LA HIERLE",
            "adresse": "LAC DE LA HIERLE\r\r\nRue Haugueras\r\r\nD88E\r\r\n31800 LABARTHE-INARD",
            "long": "0.83176137"
        },
        {
            "lat": "43.1930341",
            "code_postal": "31220",
            "commune": "MARTRES-TOLOSANE",
            "nom": "LAC DE SAINT VIDIAN",
            "adresse": "LAC DE SAINT VIDIAN \r\r\nSaint Vidian\r\r\n31220 MARTRES-TOLOSANE",
            "long": "1.00077048"
        },
        {
            "lat": "43.1006400",
            "code_postal": "31800",
            "commune": "SAINT-GAUDENS",
            "nom": "LAC DE SEDE",
            "adresse": "LAC DE SEDE\r\r\nBoulevard Etancelin\r\r\n31800 SAINT-GAUDENS",
            "long": "0.70237468"
        },
        {
            "lat": "43.1085896",
            "code_postal": "31800",
            "commune": "SAINT-GAUDENS",
            "nom": "LE REGENT",
            "adresse": "LE REGENT\r\r\n14 Rue de l'Indépendance\r\r\n31800 SAINT-GAUDENS",
            "long": "0.7190295"
        },
        {
            "lat": "43.2948110",
            "code_postal": "31390",
            "commune": "CARBONNE",
            "nom": "SKATEPARK",
            "adresse": "SKATEPARK\r\r\nCentre socio-culturel du Bois de Castres\r\r\nRoute de Lacaugne\r\r\n31390 CARBONNE",
            "long": "1.2257600"
        },
        {
            "lat": "43.2911708",
            "code_postal": "31390",
            "commune": "CARBONNE",
            "nom": "PARCOURS DE SANTE",
            "adresse": "PARCOURS DE SANTE\r\r\nCentre socio-culturel du Bois de Castres\r\r\nRoute de Lacaugne\r\r\n31390 CARBONNE",
            "long": "1.2423514"
        },
        {
            "lat": "43.2803941",
            "code_postal": "31390",
            "commune": "CARBONNE",
            "nom": "BASE NAUTIQUE DE CARBONNE",
            "adresse": "BASE NAUTIQUE DE CARBONNE\r\r\nAu fond du chemin à droite, portail bleu\r\r\nAvenue Aristide Briand, \r\r\n27 Route de Cazères\r\r\nRetenue de Mancies\r\r\n31390 CARBONNE",
            "long": "1.19539739"
        },
        {
            "lat": "43.1991780",
            "code_postal": "31220",
            "commune": "PALAMINY",
            "nom": "AERODROME DE CAZERES - PALAMINY",
            "adresse": "AERODROME DE CAZERES - PALAMINY\r\r\nAéroclub Palaminy Cazères\r\r\n31220 PALAMINY",
            "long": "1.04993456"
        },
        {
            "lat": "43.2666855",
            "code_postal": "31310",
            "commune": "RIEUX-VOLVESTRE",
            "nom": "BOWLING DES PYRENEES",
            "adresse": "BOWLING DES PYRENEES\r\r\n3 Route de Latrape\r\r\n31310 RIEUX-VOLVESTRE",
            "long": "1.19627043"
        },
        {
            "lat": "43.5308503",
            "code_postal": "31120",
            "commune": "PORTET-SUR-GARONNE",
            "nom": "PISCINE COMMUNAUTAIRE DE PORTET-SUR-GARONNE",
            "adresse": "PISCINE COMMUNAUTAIRE DE PORTET-SUR-GARONNE\r\r\nAvenue Salvador Allende\r\r\n31120 PORTET-SUR-GARONNE",
            "long": "1.4110709"
        },
        {
            "lat": "43.2034042",
            "code_postal": "31220",
            "commune": "MARTRES-TOLOSANE",
            "nom": "SKATE PARK",
            "adresse": "SKATE PARK\r\r\nRoute d'Alan\r\r\n31220 MARTRES-TOLOSANE",
            "long": "1.01054183"
        },
        {
            "lat": "43.2019154",
            "code_postal": "31220",
            "commune": "PALAMINY",
            "nom": "CAP LOISIRS",
            "adresse": "CAP LOISIRS\r\r\nAvenue de Martres-Tolosane\r\r\n31220 PALAMINY",
            "long": "1.06034153"
        },
        {
            "lat": "43.4564030",
            "code_postal": "31600",
            "commune": "MURET",
            "nom": "EXTREM RIDE PARK",
            "adresse": "EXTREM RIDE PARK\r\r\nLac des Bonnets\r\r\nRue Louison Bobet\r\r\n31600 MURET",
            "long": "1.2754120"
        },
        {
            "lat": "43.3128886",
            "code_postal": "31390",
            "commune": "CARBONNE",
            "nom": "LA SOURCE WAKE PARK",
            "adresse": "LA SOURCE WAKE PARK\r\r\nRoute de Peyssies\r\r\n31390 CARBONNE",
            "long": "1.19163106"
        },
        {
            "lat": "43.0336615",
            "code_postal": "31510",
            "commune": "VALCABRERE",
            "nom": "BASE NAUTIQUE",
            "adresse": "BASE NAUTIQUE\r\r\nPont de Labroquère\r\r\n31510 VALCABRERE",
            "long": "0.5920070"
        },
        {
            "lat": "43.4713702",
            "code_postal": "31600",
            "commune": "MURET",
            "nom": "AQUALUDIA",
            "adresse": "AQUALUDIA\r\r\n80 Avenue Bernard IV\r\r\n31600 MURET",
            "long": "1.3381529"
        },
        {
            "lat": "43.3529799",
            "code_postal": "31410",
            "commune": "NOE",
            "nom": "PISCINE MUNICIPALE",
            "adresse": "PISCINE MUNICIPALE\r\r\n90 Route de Toulouse\r\r\n31410 NOE",
            "long": "1.2738956"
        },
        {
            "lat": "43.1973163",
            "code_postal": "31220",
            "commune": "MARTRES-TOLOSANE",
            "nom": "PISCINE MUNICIPALE DE MARTRES-TOLOSANE",
            "adresse": "PISCINE MUNICIPALE DE MARTRES-TOLOSANE\r\r\nRue du Stade\r\r\n31220 MARTRES-TOLOSANE",
            "long": "1.0100147"
        },
        {
            "lat": "43.4526588",
            "code_postal": "31600",
            "commune": "MURET",
            "nom": "LE RESERVOIR DES BONNETS",
            "adresse": "LE RESERVOIR DES BONNETS\r\r\nRue Jean Manuel Fangio\r\r\n31600 MURET",
            "long": "1.2783973"
        },
        {
            "lat": "43.2948110",
            "code_postal": "31390",
            "commune": "CARBONNE",
            "nom": "PISCINE MUNICIPALE",
            "adresse": "PISCINE MUNICIPALE\r\r\nChemin du Bout du Pont\r\r\n31390 CARBONNE",
            "long": "1.2257600"
        },
        {
            "lat": "43.1175001",
            "code_postal": "31800",
            "commune": "SAINT-GAUDENS",
            "nom": "PISCINE COUVERTE SAINT GAUDENS",
            "adresse": "PISCINE COUVERTE SAINT GAUDENS\r\r\nRue Olivier de Serres\r\r\n31800 SAINT-GAUDENS",
            "long": "0.73025352"
        },
        {
            "lat": "43.241201",
            "code_postal": "31310",
            "commune": "RIEUX-VOLVESTRE",
            "nom": "LE VILLAGE GAULOIS - L'ARCHEOSITE",
            "adresse": "LE VILLAGE GAULOIS - L'ARCHEOSITE\r\r\nLa Chaussée - RD 25\r\r\n31310 RIEUX-VOLVESTRE",
            "long": "1.155109"
        },
        {
            "lat": "43.1087145",
            "code_postal": "31800",
            "commune": "SAINT-GAUDENS",
            "nom": "LE CLUB",
            "adresse": "LE CLUB\r\r\n7 Boulevard Charles de Gaulle\r\r\n31800 SAINT-GAUDENS",
            "long": "0.72101139"
        },
        {
            "lat": "43.1068947",
            "code_postal": "31800",
            "commune": "SAINT-GAUDENS",
            "nom": "GRAIN DE CAFE",
            "adresse": "GRAIN DE CAFE\r\r\nBoulevard Bepmale\r\r\n31800 SAINT-GAUDENS",
            "long": "0.72396283"
        },
        {
            "lat": "43.1085958",
            "code_postal": "31800",
            "commune": "SAINT-GAUDENS",
            "nom": "JURALO",
            "adresse": "JURALO\r\r\n56 Avenue Maréchal Joffre\r\r\n31800 SAINT-GAUDENS",
            "long": "0.7107848"
        },
        {
            "lat": "43.1095234",
            "code_postal": "31800",
            "commune": "SAINT-GAUDENS",
            "nom": "LA RENAISSANCE",
            "adresse": "LA RENAISSANCE\r\r\n4 Place Hippolyte Ducos\r\r\n31800 SAINT-GAUDENS",
            "long": "0.72582579"
        },
        {
            "lat": "43.1088898",
            "code_postal": "31800",
            "commune": "SAINT-GAUDENS",
            "nom": "LE TI PUNCH",
            "adresse": "LE TI PUNCH\r\r\n2 Avenue François Mitterrand\r\r\n31800 SAINT-GAUDENS",
            "long": "0.72879080"
        },
        {
            "lat": "43.5170107",
            "code_postal": "31120",
            "commune": "PORTET-SUR-GARONNE",
            "nom": "PLAYPARK",
            "adresse": "PLAYPARK\r\r\n18 Route de Muret\r\r\n31120 PORTET-SUR-GARONNE",
            "long": "1.3821029"
        },
        {
            "lat": "43.5285590",
            "code_postal": "31120",
            "commune": "PORTET-SUR-GARONNE",
            "nom": "LASER GAME EVOLUTION - PORTET SUR GARONNE",
            "adresse": "LASER GAME EVOLUTION - PORTET SUR GARONNE\r\r\n36 Avenue des Palanques\r\r\nZone commerciale Carrefour\r\r\n31120 PORTET-SUR-GARONNE",
            "long": "1.3995350"
        }
    ],
    "patrimoine": [
        {
            "lat": "43.0924271",
            "code_postal": "31210",
            "commune": "POINTIS-DE-RIVIERE",
            "nom": "ATELIER DE RESTAURATION D'HORLOGES BORDES LUC",
            "adresse": "ATELIER DE RESTAURATION D'HORLOGES BORDES LUC\r\n15 Route de Valentine\r\n31210 POINTIS-DE-RIVIERE",
            "long": "0.6352672"
        },
        {
            "lat": "43.3172100",
            "code_postal": "31390",
            "commune": "MARQUEFAVE",
            "nom": "CHATEAU ET PARC DE LEZAT",
            "adresse": "CHATEAU ET PARC DE LEZAT\r\r\n31390 MARQUEFAVE",
            "long": "1.2454630"
        },
        {
            "lat": "43.1410858",
            "code_postal": "31360",
            "commune": "SAINT-MARTORY",
            "nom": "CHATEAU RENAISSANCE",
            "adresse": "CHATEAU RENAISSANCE\r\r\n31360 SAINT-MARTORY",
            "long": "0.93057024"
        },
        {
            "lat": "43.0266210",
            "code_postal": "31510",
            "commune": "SAINT-BERTRAND-DE-COMMINGES",
            "nom": "CITE MEDIEVALE",
            "adresse": "CITE MEDIEVALE\r\r\n31510 SAINT-BERTRAND-DE-COMMINGES",
            "long": "0.5708600"
        },
        {
            "lat": "43.2907870",
            "code_postal": "31390",
            "commune": "CARBONNE",
            "nom": "EGLISE SAINT LAURENT",
            "adresse": "EGLISE SAINT LAURENT \r\r\n31390 CARBONNE",
            "long": "1.22698757"
        },
        {
            "lat": "43.097597",
            "code_postal": "31803",
            "commune": "SAINT-GAUDENS",
            "nom": "FIBRE EXCELLENCE",
            "adresse": "FIBRE EXCELLENCE\r\r\nRue du Président Saragat\r\r\n31803 SAINT-GAUDENS",
            "long": "0.711657"
        },
        {
            "lat": "43.2570439",
            "code_postal": "31310",
            "commune": "RIEUX-VOLVESTRE",
            "nom": "LA TOURASSE",
            "adresse": "LA TOURASSE\r\r\nRue de Salles\r\r\n31310 RIEUX-VOLVESTRE",
            "long": "1.20099113"
        },
        {
            "lat": "43.2587296",
            "code_postal": "31310",
            "commune": "RIEUX-VOLVESTRE",
            "nom": "MAISON DITE LAGUENS",
            "adresse": "MAISON DITE LAGUENS\r\r\n4 Rue de l'Evéché\r\r\n31310 RIEUX-VOLVESTRE",
            "long": "1.20260582"
        },
        {
            "lat": "43.3550559",
            "code_postal": "31410",
            "commune": "NOE",
            "nom": "MAISON DU CHEVALIER DE PARDAILHAN",
            "adresse": "MAISON DU CHEVALIER DE PARDAILHAN\r\r\n31410 NOE",
            "long": "1.27433535"
        },
        {
            "lat": "43.2052010",
            "code_postal": "31220",
            "commune": "CAZERES",
            "nom": "MAISON GARONNE",
            "adresse": "MAISON GARONNE\r\r\n31220 CAZERES",
            "long": "1.0866450"
        },
        {
            "lat": "43.4630693",
            "code_postal": "31600",
            "commune": "MURET",
            "nom": "MUSEE CLEMENT ADER",
            "adresse": "MUSEE CLEMENT ADER\r\r\n6 Boulevard Aristide Briand\r\r\n31600 MURET",
            "long": "1.3298326"
        },
        {
            "lat": "43.4609478",
            "code_postal": "31600",
            "commune": "MURET",
            "nom": "PARC CLEMENT ADER",
            "adresse": "PARC CLEMENT ADER\r\r\n31600 MURET",
            "long": "1.32401520"
        },
        {
            "lat": "43.0804670",
            "code_postal": "31800",
            "commune": "LABARTHE-RIVIERE",
            "nom": "PILE ROMAINE",
            "adresse": "PILE ROMAINE\r\r\n31800 LABARTHE-RIVIERE",
            "long": "0.6714120"
        },
        {
            "lat": "43.2582491",
            "code_postal": "31310",
            "commune": "RIEUX-VOLVESTRE",
            "nom": "PONT LAJOUS",
            "adresse": "PONT LAJOUS\r\r\n31310 RIEUX-VOLVESTRE",
            "long": "1.20389864"
        },
        {
            "lat": "43.0267268",
            "code_postal": "31510",
            "commune": "SAINT-BERTRAND-DE-COMMINGES",
            "nom": "PORTE CABIROLE",
            "adresse": "PORTE CABIROLE\r\r\n31510 SAINT-BERTRAND-DE-COMMINGES",
            "long": "0.57296821"
        },
        {
            "lat": "43.0278582",
            "code_postal": "31510",
            "commune": "SAINT-BERTRAND-DE-COMMINGES",
            "nom": "PORTE MAJOU",
            "adresse": "PORTE MAJOU\r\r\n31510 SAINT-BERTRAND-DE-COMMINGES",
            "long": "0.57004192"
        },
        {
            "lat": "43.1077930",
            "code_postal": "31360",
            "commune": "BEAUCHALOT",
            "nom": "TOUR DU PORCHE DE L'EGLISE ET LA PLACE",
            "adresse": "TOUR DU PORCHE DE L'EGLISE ET LA PLACE\r\r\n31360 BEAUCHALOT",
            "long": "0.8694250"
        },
        {
            "lat": "43.1078884",
            "code_postal": "31800",
            "commune": "SAINT-GAUDENS",
            "nom": "VISITE GUIDEE DE LA VILLE DE SAINT-GAUDENS",
            "adresse": "VISITE GUIDEE DE LA VILLE DE SAINT-GAUDENS\r\r\n2 Rue Thiers\r\r\n31800 SAINT-GAUDENS",
            "long": "0.7250865"
        },
        {
            "lat": "43.1598050",
            "code_postal": "31360",
            "commune": "PROUPIARY",
            "nom": "CHEMIN DE NANKIN",
            "adresse": "CHEMIN DE NANKIN\r\r\n31360 PROUPIARY",
            "long": "0.8630160"
        },
        {
            "lat": "43.2579991",
            "code_postal": "31310",
            "commune": "RIEUX-VOLVESTRE",
            "nom": "DECOUVERTE DE RIEUX-VOLVESTRE",
            "adresse": "DECOUVERTE DE RIEUX-VOLVESTRE\r\r\n31310 RIEUX-VOLVESTRE",
            "long": "1.20285258"
        },
        {
            "lat": "43.2052244",
            "code_postal": "31220",
            "commune": "CAZERES",
            "nom": "EGLISE NOTRE DAME DE L'ASSOMPTION ET SON TRESOR",
            "adresse": "EGLISE NOTRE DAME DE L'ASSOMPTION ET SON TRESOR\r\r\n31220 CAZERES",
            "long": "1.08647870"
        },
        {
            "lat": "43.4606424",
            "code_postal": "31600",
            "commune": "MURET",
            "nom": "EGLISE SAINT-JACQUES",
            "adresse": "EGLISE SAINT-JACQUES\r\r\n31600 MURET",
            "long": "1.32646136"
        },
        {
            "lat": "43.1080503",
            "code_postal": "31800",
            "commune": "SAINT-GAUDENS",
            "nom": "SQUARE AZEMAR",
            "adresse": "SQUARE AZEMAR\r\r\n31800 SAINT-GAUDENS",
            "long": "0.72170306"
        },
        {
            "lat": "43.2069177",
            "code_postal": "31220",
            "commune": "CAZERES",
            "nom": "LE JARDIN GARONNE",
            "adresse": "LE JARDIN GARONNE\r\r\n13 Rue de la Case\r\r\n31220 CAZERES",
            "long": "1.0846282"
        },
        {
            "lat": "43.0280954",
            "code_postal": "31510",
            "commune": "SAINT-BERTRAND-DE-COMMINGES",
            "nom": "SITE ANTIQUE",
            "adresse": "SITE ANTIQUE\r\r\n31510 SAINT-BERTRAND-DE-COMMINGES",
            "long": "0.57382115"
        },
        {
            "lat": "43.2052010",
            "code_postal": "31220",
            "commune": "CAZERES",
            "nom": "PARCOURS GARONNE",
            "adresse": "PARCOURS GARONNE\r\r\n31220 CAZERES",
            "long": "1.0866450"
        },
        {
            "lat": "43.1079132",
            "code_postal": "31800",
            "commune": "SAINT-GAUDENS",
            "nom": "ESPACE PHOTOGRAPHIES",
            "adresse": "ESPACE PHOTOGRAPHIES\r\r\n1er étage de l'Office de Tourisme\r\r\n2 Rue Thiers\r\r\n31800 SAINT-GAUDENS",
            "long": "0.72522212"
        },
        {
            "lat": "43.1991022",
            "code_postal": "31220",
            "commune": "MARTRES-TOLOSANE",
            "nom": "HORLOGERIE BIJOUTERIE CHABERNAUD",
            "adresse": "HORLOGERIE BIJOUTERIE CHABERNAUD\r\r\n15 bis Boulevard du Nord\r\r\n31220 MARTRES-TOLOSANE",
            "long": "1.01022439"
        },
        {
            "lat": "43.1077750",
            "code_postal": "31800",
            "commune": "SAINT-GAUDENS",
            "nom": "COLLEGIALE SAINT PIERRE",
            "adresse": "COLLEGIALE SAINT PIERRE\r\r\nPlace Jean Jaurès\r\r\n31800 SAINT-GAUDENS",
            "long": "0.72458131"
        },
        {
            "lat": "43.1988095",
            "code_postal": "31220",
            "commune": "MARTRES-TOLOSANE",
            "nom": "LE GRAND PRESBYTERE",
            "adresse": "LE GRAND PRESBYTERE\r\r\nPlace Henri Dulion\r\r\n31220 MARTRES-TOLOSANE",
            "long": "1.0109527"
        },
        {
            "lat": "43.2582140",
            "code_postal": "31310",
            "commune": "RIEUX-VOLVESTRE",
            "nom": "MAISON A PANS DE BOIS XIV-XVEME SIECLE CLASSEE MONUMENT HISTORIQUE",
            "adresse": "MAISON A PANS DE BOIS XIV-XVEME SIECLE CLASSEE MONUMENT HISTORIQUE\r\r\n5 Place Monseigneur de Lastic\r\r\n31310 RIEUX-VOLVESTRE",
            "long": "1.20286867"
        },
        {
            "lat": "43.2898324",
            "code_postal": "31390",
            "commune": "CARBONNE",
            "nom": "MOULIN DE FERRERY",
            "adresse": "MOULIN DE FERRERY\r\r\nQuartier Ceseret\r\r\n31390 CARBONNE",
            "long": "1.2232088"
        },
        {
            "lat": "43.2869416",
            "code_postal": "31390",
            "commune": "CARBONNE",
            "nom": "GALERIE DES VESTIGES AU DOMAINE DE LA TERRASSE",
            "adresse": "GALERIE DES VESTIGES AU DOMAINE DE LA TERRASSE\r\r\n16-18 Avenue Aristide Briand\r\r\n31390 CARBONNE",
            "long": "1.2016323"
        },
        {
            "lat": "43.2000633",
            "code_postal": "31220",
            "commune": "MARTRES-TOLOSANE",
            "nom": "FAIENCERIE AU VIEUX MARTRES",
            "adresse": "FAIENCERIE AU VIEUX MARTRES\r\r\n14 Boulevard du Nord\r\r\n31220 MARTRES-TOLOSANE",
            "long": "1.01187976"
        },
        {
            "lat": "43.2966838",
            "code_postal": "31390",
            "commune": "CARBONNE",
            "nom": "BALADE AU FIL DU TEMPS",
            "adresse": "BALADE AU FIL DU TEMPS\r\r\nPlace de la République\r\r\n31390 CARBONNE",
            "long": "1.22488581"
        },
        {
            "lat": "43.1995216",
            "code_postal": "31220",
            "commune": "MARTRES-TOLOSANE",
            "nom": "ATELIER STEPHANIE JOFFRE",
            "adresse": "ATELIER STEPHANIE JOFFRE\r\r\n50 Boulevard du Nord\r\r\n31220 MARTRES-TOLOSANE",
            "long": "1.00989830"
        },
        {
            "lat": "43.2920764",
            "code_postal": "31390",
            "commune": "CARBONNE",
            "nom": "MUSEE ABBAL",
            "adresse": "MUSEE ABBAL\r\r\nRue du Sculpteur Abbal \r\r\n31390 CARBONNE",
            "long": "1.2270643"
        },
        {
            "lat": "43.0328900",
            "code_postal": "31510",
            "commune": "VALCABRERE",
            "nom": "JARDIN DE PLANTES AROMATIQUE DU MONDE ROMAIN",
            "adresse": "JARDIN DE PLANTES AROMATIQUE DU MONDE ROMAIN\r\r\nMairie de Valcabrere\r\r\n31510 VALCABRERE",
            "long": "0.5831010"
        },
        {
            "lat": "43.2038255",
            "code_postal": "31220",
            "commune": "MARTRES-TOLOSANE",
            "nom": "FAIENCERIE JODRA",
            "adresse": "FAIENCERIE JODRA\r\r\n3 Route de St Picaud\r\r\n31220 MARTRES-TOLOSANE",
            "long": "1.01524464"
        },
        {
            "lat": "43.0953930",
            "code_postal": "31800",
            "commune": "VALENTINE",
            "nom": "MAISON DU PATRIMOINE ET DE LA CULTURE",
            "adresse": "MAISON DU PATRIMOINE ET DE LA CULTURE\r\r\nPlace du Bourdalès\r\r\n31800 VALENTINE",
            "long": "0.7053630"
        },
        {
            "lat": "43.2001657",
            "code_postal": "31220",
            "commune": "MARTRES-TOLOSANE",
            "nom": "FAIENCERIE D'ART PASCALE CABARE",
            "adresse": "FAIENCERIE D'ART PASCALE CABARE\r\r\n30 Boulevard du Nord\r\r\n31220 MARTRES-TOLOSANE",
            "long": "1.0106148"
        },
        {
            "lat": "43.1991022",
            "code_postal": "31220",
            "commune": "MARTRES-TOLOSANE",
            "nom": "HORLOGERIE BIJOUTERIE CHABERNAUD",
            "adresse": "HORLOGERIE BIJOUTERIE CHABERNAUD\r\r\n15 bis Boulevard du Nord\r\r\n31220 MARTRES-TOLOSANE",
            "long": "1.01022439"
        },
        {
            "lat": "43.0286304",
            "code_postal": "31510",
            "commune": "SAINT-BERTRAND-DE-COMMINGES",
            "nom": "LES SABOTS D'ISA",
            "adresse": "LES SABOTS D'ISA\r\r\nLa Prade\r\r\n31510 SAINT-BERTRAND-DE-COMMINGES",
            "long": "0.57507938"
        },
        {
            "lat": "43.1105925",
            "code_postal": "31800",
            "commune": "SAINT-GAUDENS",
            "nom": "MUSEE CIRCUIT DU COMMINGES DE SAINT-GAUDENS",
            "adresse": "MUSEE CIRCUIT DU COMMINGES DE SAINT-GAUDENS\r\r\nRue des chanteurs du Comminges\r\r\n31800 SAINT-GAUDENS",
            "long": "0.70781199"
        },
        {
            "lat": "43.0273190",
            "code_postal": "31510",
            "commune": "SAINT-BERTRAND-DE-COMMINGES",
            "nom": "L'AME DE FORGE",
            "adresse": "L'AME DE FORGE\r\r\nVille Haute\r\r\n31510 SAINT-BERTRAND-DE-COMMINGES",
            "long": "0.57117650"
        },
        {
            "lat": "43.1983318",
            "code_postal": "31220",
            "commune": "MARTRES-TOLOSANE",
            "nom": "ATELIER PEINTRE SCULPTEUR STEPHANIE SAINT-MARTIN",
            "adresse": "ATELIER PEINTRE SCULPTEUR STEPHANIE SAINT-MARTIN\r\r\n9 Avenue des Pyrénées\r\r\n31220 MARTRES-TOLOSANE",
            "long": "1.00905499"
        },
        {
            "lat": "43.1989959",
            "code_postal": "31220",
            "commune": "MARTRES-TOLOSANE",
            "nom": "LA RENAISSANCE ARTISANALE",
            "adresse": "LA RENAISSANCE ARTISANALE\r\r\n2 Bis Avenue des Pyrénées\r\r\n31220 MARTRES-TOLOSANE",
            "long": "1.0098677"
        },
        {
            "lat": "43.0328900",
            "code_postal": "31510",
            "commune": "VALCABRERE",
            "nom": "ART ET MEMOIRE - ATELIER EXPO",
            "adresse": "ART ET MEMOIRE - ATELIER EXPO\r\r\nPlace des Mesures à grains\r\r\n31510 VALCABRERE",
            "long": "0.5831010"
        },
        {
            "lat": "43.1991516",
            "code_postal": "31220",
            "commune": "MARTRES-TOLOSANE",
            "nom": "CENTRE D'INTERPRETATION DU PATRIMOINE MARTRAIS ANGONIA",
            "adresse": "CENTRE D'INTERPRETATION DU PATRIMOINE MARTRAIS ANGONIA\r\r\nPlace Henri Dulion\r\r\n31220 MARTRES-TOLOSANE",
            "long": "1.01114850"
        },
        {
            "lat": "43.5254230",
            "code_postal": "31120",
            "commune": "PORTET-SUR-GARONNE",
            "nom": "LE BAC DE PORTET",
            "adresse": "LE BAC DE PORTET\r\r\nRue du Bac\r\r\n31120 PORTET-SUR-GARONNE",
            "long": "1.4118822"
        },
        {
            "lat": "43.0269542",
            "code_postal": "31510",
            "commune": "SAINT-BERTRAND-DE-COMMINGES",
            "nom": "LES OLIVETAINS",
            "adresse": "LES OLIVETAINS\r\r\nParvis de la Cathédrale\r\r\n31510 SAINT-BERTRAND-DE-COMMINGES",
            "long": "0.57107992"
        },
        {
            "lat": "43.2579951",
            "code_postal": "31310",
            "commune": "RIEUX-VOLVESTRE",
            "nom": "CATHEDRALE SAINTE-MARIE ET TRESOR EPISCOPAL",
            "adresse": "CATHEDRALE SAINTE-MARIE ET TRESOR EPISCOPAL\r\r\nCathédrale de Rieux\r\r\nPlace Mgr de Lastic\r\r\n31310 RIEUX-VOLVESTRE",
            "long": "1.20284989"
        },
        {
            "lat": "43.2579978",
            "code_postal": "31310",
            "commune": "RIEUX-VOLVESTRE",
            "nom": "LES MUSEES DE RIEUX",
            "adresse": "LES MUSEES DE RIEUX\r\r\n9 Rue de l'Evéché\r\r\n31310 RIEUX-VOLVESTRE",
            "long": "1.20285765"
        },
        {
            "lat": "43.0285530",
            "code_postal": "31510",
            "commune": "VALCABRERE",
            "nom": "BASILIQUE SAINT-JUST",
            "adresse": "BASILIQUE SAINT-JUST\r\r\n31510 VALCABRERE",
            "long": "0.58467813"
        },
        {
            "lat": "43.1413795",
            "code_postal": "31360",
            "commune": "PROUPIARY",
            "nom": "ABBAYE DE BONNEFONT",
            "adresse": "ABBAYE DE BONNEFONT\r\r\n31360 PROUPIARY",
            "long": "0.87415253"
        },
        {
            "lat": "43.0270385",
            "code_postal": "31510",
            "commune": "SAINT-BERTRAND-DE-COMMINGES",
            "nom": "LE MUSEE ARCHEOLOGIQUE DEPARTEMENTAL",
            "adresse": "LE MUSEE ARCHEOLOGIQUE DEPARTEMENTAL\r\r\nBâtiment de l'ancienne Gendarmerie\r\r\nVille Haute\r\r\n31510 SAINT-BERTRAND-DE-COMMINGES",
            "long": "0.56985416"
        },
        {
            "lat": "43.1053071",
            "code_postal": "31800",
            "commune": "SAINT-GAUDENS",
            "nom": "CENTRE D'ART CONTEMPORAIN CHAPELLE SAINT-JACQUES",
            "adresse": "CENTRE D'ART CONTEMPORAIN CHAPELLE SAINT-JACQUES\r\r\nAvenue Maréchal Foch\r\r\n31800 SAINT-GAUDENS",
            "long": "0.71576939"
        },
        {
            "lat": "43.0267974",
            "code_postal": "31510",
            "commune": "SAINT-BERTRAND-DE-COMMINGES",
            "nom": "CATHEDRALE SAINTE-MARIE",
            "adresse": "CATHEDRALE SAINTE-MARIE\r\r\nPlace du Parvis\r\r\n31510 SAINT-BERTRAND-DE-COMMINGES",
            "long": "0.57125159"
        },
        {
            "lat": "43.3997110",
            "code_postal": "31410",
            "commune": "LE FAUGA",
            "nom": "BAC DU FAUGA",
            "adresse": "BAC DU FAUGA\r\r\n31410 LE FAUGA",
            "long": "1.3000449"
        },
        {
            "lat": "43.1074419",
            "code_postal": "31800",
            "commune": "SAINT-GAUDENS",
            "nom": "LE MUSEE - ARTS & FIGURES DES PYRENEES CENTRALES SAINT-GAUDENS",
            "adresse": "LE MUSEE - ARTS & FIGURES DES PYRENEES CENTRALES SAINT-GAUDENS\r\r\n35 Boulevard Jean Bepmale\r\r\n31800 SAINT-GAUDENS",
            "long": "0.72567059"
        },
        {
            "lat": "43.1985449",
            "code_postal": "31220",
            "commune": "MARTRES-TOLOSANE",
            "nom": "MUSEE ARCHEOLOGIQUE DU DONJON",
            "adresse": "MUSEE ARCHEOLOGIQUE DU DONJON\r\r\nRue du Donjon\r\r\n31220 MARTRES-TOLOSANE",
            "long": "1.01086908"
        },
        {
            "lat": "43.0268641",
            "code_postal": "31510",
            "commune": "SAINT-BERTRAND-DE-COMMINGES",
            "nom": "MUSEE DU BLASON ET DES ORDRES DE CHEVALERIE",
            "adresse": "MUSEE DU BLASON ET DES ORDRES DE CHEVALERIE\r\r\nRue de la Poste \r\r\n31510 SAINT-BERTRAND-DE-COMMINGES",
            "long": "0.57234326"
        },
        {
            "lat": "43.0266210",
            "code_postal": "31510",
            "commune": "SAINT-BERTRAND-DE-COMMINGES",
            "nom": "ARCANE CUIR ATELIER",
            "adresse": "ARCANE CUIR ATELIER\r\r\nVille haute\r\r\n31510 SAINT-BERTRAND-DE-COMMINGES",
            "long": "0.5708600"
        },
        {
            "lat": "43.4030070",
            "code_postal": "31600",
            "commune": "MURET",
            "nom": "ATELIER CERAMIQUE DE SAINT-AMANS",
            "adresse": "ATELIER CERAMIQUE DE SAINT-AMANS\r\r\n8 Chemin de Saint-Amans\r\r\n31600 MURET",
            "long": "1.3120518"
        },
        {
            "lat": "43.5418696",
            "code_postal": "31120",
            "commune": "PORTET-SUR-GARONNE",
            "nom": "LE MUSEE DE LA MEMOIRE",
            "adresse": "LE MUSEE DE LA MEMOIRE\r\r\nAllée du Grand Chêne\r\r\n31120 PORTET-SUR-GARONNE",
            "long": "1.4085209"
        },
        {
            "lat": "43.1048910",
            "code_postal": "31800",
            "commune": "ESTANCARBON",
            "nom": "MOULIN DE LINOS",
            "adresse": "MOULIN DE LINOS\r\r\nDomaine de Paban\r\r\n31800 ESTANCARBON",
            "long": "0.76491933"
        },
        {
            "lat": "43.0948915",
            "code_postal": "31800",
            "commune": "VALENTINE",
            "nom": "VILLA GALLO-ROMAINE SITE D'ARNESP",
            "adresse": "VILLA GALLO-ROMAINE SITE D'ARNESP\r\r\nMairie de Valentine\r\r\nPlace du Bourdalès\r\r\n31800 VALENTINE",
            "long": "0.68833633"
        }
    ],
    "restaurants": [
        {
            "lat": "43.4774770",
            "code_postal": "31600",
            "commune": "MURET",
            "nom": "CASA TITO",
            "adresse": "CASA TITO\r\r\nRue Pierre de Fermat\r\r\n31600 MURET",
            "long": "1.3327570"
        },
        {
            "lat": "43.0271582",
            "code_postal": "31510",
            "commune": "SAINT-BERTRAND-DE-COMMINGES",
            "nom": "CREPERIE LA BERGERIE",
            "adresse": "CREPERIE LA BERGERIE\r\r\n31510 SAINT-BERTRAND-DE-COMMINGES",
            "long": "0.57082781"
        },
        {
            "lat": "43.2942709",
            "code_postal": "31390",
            "commune": "CARBONNE",
            "nom": "CREP'PIZZ",
            "adresse": "CREP'PIZZ\r\r\n12 rue Jean Jaurès\r\r\n31390 CARBONNE",
            "long": "1.2258545"
        },
        {
            "lat": "43.0844025",
            "code_postal": "31210",
            "commune": "GOURDAN-POLIGNAN",
            "nom": "FLUNCH",
            "adresse": "FLUNCH\r\r\nCentre commercialU\r\r\nAvenue de Luchon\r\r\n31210 GOURDAN-POLIGNAN",
            "long": "0.5741515"
        },
        {
            "lat": "43.4923520",
            "code_postal": "31120",
            "commune": "PINSAGUEL",
            "nom": "LA TABLE DE MARIE",
            "adresse": "LA TABLE DE MARIE\r\r\n5 Rue des Moles\r\r\n31120 PINSAGUEL",
            "long": "1.3949552"
        },
        {
            "lat": "43.0306160",
            "code_postal": "31510",
            "commune": "VALCABRERE",
            "nom": "LE LUGDUNUM",
            "adresse": "LE LUGDUNUM \r\r\nLes Espouges\r\r\n31510 VALCABRERE",
            "long": "0.5919302"
        },
        {
            "lat": "43.5455550",
            "code_postal": "31120",
            "commune": "PORTET-SUR-GARONNE",
            "nom": "LE MANOIR DU PRINCE",
            "adresse": "LE MANOIR DU PRINCE\r\r\nRoute de Seysses\r\r\nAérodrome de Francazal\r\r\n31120 PORTET-SUR-GARONNE",
            "long": "1.3675000"
        },
        {
            "lat": "43.540311",
            "code_postal": "31120",
            "commune": "PORTET-SUR-GARONNE",
            "nom": "L'HOTAN",
            "adresse": "L'HOTAN\r\r\n80 Route d'Espagne\r\r\n31120 PORTET-SUR-GARONNE",
            "long": "1.413861"
        },
        {
            "lat": "43.4652877",
            "code_postal": "31600",
            "commune": "MURET",
            "nom": "L'OPALINE",
            "adresse": "L'OPALINE\r\r\n350 Route de Rieumes\r\r\n31600 MURET",
            "long": "1.2646482"
        },
        {
            "lat": "43.0795173",
            "code_postal": "31210",
            "commune": "GOURDAN-POLIGNAN",
            "nom": "MC DONALDS",
            "adresse": "MC DONALDS\r\r\nAvenue de Polignan\r\r\n31210 GOURDAN-POLIGNAN",
            "long": "0.5796547"
        },
        {
            "lat": "43.0752950",
            "code_postal": "31510",
            "commune": "SEILHAN",
            "nom": "RESTAURANT CHINE JAPON",
            "adresse": "RESTAURANT CHINE JAPON\r\r\n1 Rue du Bazert\r\r\n31510 SEILHAN",
            "long": "0.6021112"
        },
        {
            "lat": "43.3006270",
            "code_postal": "31390",
            "commune": "CARBONNE",
            "nom": "RESTAURANT L'ALQUEZAR",
            "adresse": "RESTAURANT L'ALQUEZAR\r\r\n31 Route de l'Arize\r\r\n31390 CARBONNE",
            "long": "1.2199995"
        },
        {
            "lat": "",
            "code_postal": "31600",
            "commune": "MURET",
            "nom": "ROTISSERIE ET CIE",
            "adresse": "ROTISSERIE ET CIE \r\r\n31 Impasse Jacques Monod \r\r\n31600 MURET",
            "long": ""
        },
        {
            "lat": "43.4801187",
            "code_postal": "31600",
            "commune": "MURET",
            "nom": "ROTISSERIE ET COMPAGNIE",
            "adresse": "ROTISSERIE ET COMPAGNIE\r\r\nImpasse Jacques Monod\r\r\n31600 MURET",
            "long": "1.3346500"
        },
        {
            "lat": "43.3015310",
            "code_postal": "31390",
            "commune": "CARBONNE",
            "nom": "LA CASE A MAXOU",
            "adresse": "LA CASE A MAXOU\r\r\nparking GAMM VERT \r\r\nRoute de l'Arize \r\r\n31390 CARBONNE",
            "long": "1.2191395"
        },
        {
            "lat": "43.1085414",
            "code_postal": "31800",
            "commune": "SAINT-GAUDENS",
            "nom": "L'ESCABECHE",
            "adresse": "L'ESCABECHE\r\r\n6 Rue de l'Indépendance\r\r\n31800 SAINT-GAUDENS",
            "long": "0.7196598"
        },
        {
            "lat": "43.2948110",
            "code_postal": "31390",
            "commune": "CARBONNE",
            "nom": "MANI'SUSHI",
            "adresse": "MANI'SUSHI\r\r\n31390 CARBONNE",
            "long": "1.2257600"
        },
        {
            "lat": "43.2958306",
            "code_postal": "31390",
            "commune": "CARBONNE",
            "nom": "AUBERGE CARBONA",
            "adresse": "AUBERGE CARBONA\r\r\n15 Place de la République\r\r\n31390 CARBONNE",
            "long": "1.2243697"
        },
        {
            "lat": "43.0822111",
            "code_postal": "31210",
            "commune": "GOURDAN-POLIGNAN",
            "nom": "BAR RESTAURANT LE 31",
            "adresse": "BAR RESTAURANT LE 31\r\r\n4 Place Bout du Pont\r\r\n31210 GOURDAN-POLIGNAN",
            "long": "0.5749751"
        },
        {
            "lat": "43.1078115",
            "code_postal": "31800",
            "commune": "SAINT-GAUDENS",
            "nom": "BISTRO GRILL REPUBLIQUE",
            "adresse": "BISTRO GRILL REPUBLIQUE\r\r\n8 Rue de la République\r\r\n31800 SAINT-GAUDENS",
            "long": "0.7225932"
        },
        {
            "lat": "43.1141552",
            "code_postal": "31800",
            "commune": "ESTANCARBON",
            "nom": "BUFFALO GRILL",
            "adresse": "BUFFALO GRILL\r\r\n1 Avenue du Pic du Midi\r\r\n31800 ESTANCARBON",
            "long": "0.7602996"
        },
        {
            "lat": "43.1068950",
            "code_postal": "31800",
            "commune": "SAINT-GAUDENS",
            "nom": "CAFE 50",
            "adresse": "CAFE 50\r\r\nPlace Napoléon\r\r\n31800 SAINT-GAUDENS",
            "long": "0.7237630"
        },
        {
            "lat": "43.5223679",
            "code_postal": "31120",
            "commune": "PORTET-SUR-GARONNE",
            "nom": "CHEZ PAUL",
            "adresse": "CHEZ PAUL\r\r\n8 Allées du Baron-Ritay\r\r\n31120 PORTET-SUR-GARONNE",
            "long": "1.4086754"
        },
        {
            "lat": "43.106895",
            "code_postal": "31800",
            "commune": "ESTANCARBON",
            "nom": "CRESCENDO",
            "adresse": "CRESCENDO\r\r\n10 Avenue du Cagire\r\r\nCentre Commercial Leclerc ZAC des Landes\r\r\n31800 ESTANCARBON",
            "long": "0.72376299"
        },
        {
            "lat": "43.1092219",
            "code_postal": "31800",
            "commune": "SAINT-GAUDENS",
            "nom": "DELICE DE L'INDE",
            "adresse": "DELICE DE L'INDE\r\r\n31 Boulevard Charles De Gaulle\r\r\n31800 SAINT-GAUDENS",
            "long": "0.72322420"
        },
        {
            "lat": "43.1147082",
            "code_postal": "31800",
            "commune": "ESTANCARBON",
            "nom": "GAVASTOUS",
            "adresse": "GAVASTOUS\r\r\nD817\r\r\nZAC des Landes\r\r\n31800 ESTANCARBON",
            "long": "0.7802971"
        },
        {
            "lat": "43.1409138",
            "code_postal": "31360",
            "commune": "SAINT-MARTORY",
            "nom": "HO FAME",
            "adresse": "HO FAME\r\r\n9 Avenue des Pyrenees\r\r\n31360 SAINT-MARTORY",
            "long": "0.9307412"
        },
        {
            "lat": "43.0844025",
            "code_postal": "31210",
            "commune": "GOURDAN-POLIGNAN",
            "nom": "KIOSQUE A PIZZAS",
            "adresse": "KIOSQUE A PIZZAS\r\r\nAvenue de Luchon\r\r\n31210 GOURDAN-POLIGNAN",
            "long": "0.5741515"
        },
        {
            "lat": "43.1077930",
            "code_postal": "31360",
            "commune": "BEAUCHALOT",
            "nom": "LE CACTUS",
            "adresse": "LE CACTUS\r\r\nVillage\r\r\n31360 BEAUCHALOT",
            "long": "0.8694250"
        },
        {
            "lat": "43.1083436",
            "code_postal": "31800",
            "commune": "SAINT-GAUDENS",
            "nom": "LE CHAT GOURMAND",
            "adresse": "LE CHAT GOURMAND\r\r\n2 Rue de l'Indépendance\r\r\n31800 SAINT-GAUDENS",
            "long": "0.7207056"
        },
        {
            "lat": "43.1073748",
            "code_postal": "31800",
            "commune": "LABARTHE-INARD",
            "nom": "LE CUU LONG",
            "adresse": "LE CUU LONG\r\r\n30 D817\r\r\n31800 LABARTHE-INARD",
            "long": "0.83650588"
        },
        {
            "lat": "43.4609513",
            "code_postal": "31600",
            "commune": "MURET",
            "nom": "LES DEUX TOQUES",
            "adresse": "LES DEUX TOQUES\r\r\n46 Rue Clément Ader\r\r\n31600 MURET",
            "long": "1.3269827"
        },
        {
            "lat": "43.4727186",
            "code_postal": "31600",
            "commune": "SAUBENS",
            "nom": "LES PALMIERS",
            "adresse": "LES PALMIERS\r\r\n52 Bis Chemin du Port\r\r\n31600 SAUBENS",
            "long": "1.3432122"
        },
        {
            "lat": "43.1099735",
            "code_postal": "31800",
            "commune": "SAINT-GAUDENS",
            "nom": "LOU GRILLADOU",
            "adresse": "LOU GRILLADOU\r\r\n6 Avenue de l'Isle\r\r\n31800 SAINT-GAUDENS",
            "long": "0.72597270"
        },
        {
            "lat": "43.1147082",
            "code_postal": "31800",
            "commune": "ESTANCARBON",
            "nom": "MAC DONALD",
            "adresse": "MAC DONALD\r\r\n2 Avenue du Pic du Midi\r\r\nZAC des Landes\r\r\n31800 ESTANCARBON",
            "long": "0.78029709"
        },
        {
            "lat": "43.1069122",
            "code_postal": "31800",
            "commune": "SAINT-GAUDENS",
            "nom": "MAKILA",
            "adresse": "MAKILA\r\r\n32 Boulevard Jean Bepmale\r\r\n31800 SAINT-GAUDENS",
            "long": "0.7241304"
        },
        {
            "lat": "43.2108331",
            "code_postal": "31220",
            "commune": "CAZERES",
            "nom": "O NEMSUSHI",
            "adresse": "O NEMSUSHI\r\r\n63 Avenue Pasteur\r\r\n31220 CAZERES",
            "long": "1.0838747"
        },
        {
            "lat": "43.1083362",
            "code_postal": "31800",
            "commune": "SAINT-GAUDENS",
            "nom": "O PETIT CAMBODGE",
            "adresse": "O PETIT CAMBODGE\r\r\n27 Rue de la République\r\r\n31800 SAINT-GAUDENS",
            "long": "0.72332589"
        },
        {
            "lat": "43.4694339",
            "code_postal": "31600",
            "commune": "MURET",
            "nom": "O SAINT CHRISTOPHE",
            "adresse": "O SAINT CHRISTOPHE\r\r\n171 Avenue Jacques Douzans\r\r\n31600 MURET",
            "long": "1.3291055"
        },
        {
            "lat": "43.1085966",
            "code_postal": "31800",
            "commune": "SAINT-GAUDENS",
            "nom": "PIZZA AU FEU DE BOIS",
            "adresse": "PIZZA AU FEU DE BOIS\r\r\n65 Avenue Maréchal Joffre\r\r\n31800 SAINT-GAUDENS",
            "long": "0.71371499"
        },
        {
            "lat": "43.1099758",
            "code_postal": "31800",
            "commune": "SAINT-GAUDENS",
            "nom": "PIZZA BONICI",
            "adresse": "PIZZA BONICI\r\r\n7 Avenue François Mitterrand\r\r\n31800 SAINT-GAUDENS",
            "long": "0.73199439"
        },
        {
            "lat": "43.1117743",
            "code_postal": "31800",
            "commune": "SAINT-GAUDENS",
            "nom": "PIZZA COMMINGEOISE",
            "adresse": "PIZZA COMMINGEOISE\r\r\n13 Avenue de l'Isle\r\r\n31800 SAINT-GAUDENS",
            "long": "0.72580389"
        },
        {
            "lat": "43.1091944",
            "code_postal": "31800",
            "commune": "SAINT-GAUDENS",
            "nom": "PIZZA PABLO",
            "adresse": "PIZZA PABLO\r\r\nBoulevard Charles De Gaulle\r\r\n31800 SAINT-GAUDENS",
            "long": "0.72321469"
        },
        {
            "lat": "43.1095234",
            "code_postal": "31800",
            "commune": "SAINT-GAUDENS",
            "nom": "RENAISSANCE",
            "adresse": "RENAISSANCE\r\r\n4 Place Hippolyte Ducos\r\r\n31800 SAINT-GAUDENS",
            "long": "0.7258258"
        },
        {
            "lat": "43.1129807",
            "code_postal": "31800",
            "commune": "SAINT-GAUDENS",
            "nom": "RIBAR",
            "adresse": "RIBAR\r\r\nQuartier du Pouech\r\r\n31800 SAINT-GAUDENS",
            "long": "0.74686640"
        },
        {
            "lat": "43.1089684",
            "code_postal": "31800",
            "commune": "SAINT-GAUDENS",
            "nom": "RICHELIEU",
            "adresse": "RICHELIEU\r\r\n16 Boulevard Charles de Gaulle\r\r\n31800 SAINT-GAUDENS",
            "long": "0.7239489"
        },
        {
            "lat": "43.1080639",
            "code_postal": "31800",
            "commune": "SAINT-GAUDENS",
            "nom": "SAPTAWEE",
            "adresse": "SAPTAWEE\r\r\n8 Rue Thiers\r\r\n31800 SAINT-GAUDENS",
            "long": "0.7253163"
        },
        {
            "lat": "43.1172443",
            "code_postal": "31800",
            "commune": "SAINT-GAUDENS",
            "nom": "ST GO PIZZ",
            "adresse": "ST GO PIZZ\r\r\n59 Avenue de l'Isle\r\r\n31800 SAINT-GAUDENS",
            "long": "0.72670770"
        },
        {
            "lat": "43.1112787",
            "code_postal": "31800",
            "commune": "SAINT-GAUDENS",
            "nom": "TUTTI PIZZA",
            "adresse": "TUTTI PIZZA\r\r\n102 bis Avenue François Mitterand\r\r\n31800 SAINT-GAUDENS",
            "long": "0.74098709"
        },
        {
            "lat": "43.1095410",
            "code_postal": "31800",
            "commune": "SAINT-GAUDENS",
            "nom": "LE PEDUSSAUT",
            "adresse": "LE PEDUSSAUT\r\r\n9 Avenue de Boulogne\r\r\n31800 SAINT-GAUDENS",
            "long": "0.72319479"
        },
        {
            "lat": "43.1409901",
            "code_postal": "31360",
            "commune": "SAINT-MARTORY",
            "nom": "BISTROT DE PAYS CHEZ KIKI",
            "adresse": "BISTROT DE PAYS CHEZ KIKI\r\r\n1 Avenue des Pyrenees\r\r\n31360 SAINT-MARTORY",
            "long": "0.93081093"
        },
        {
            "lat": "43.3984934",
            "code_postal": "31410",
            "commune": "LE FAUGA",
            "nom": "CHATEAU DE LA MANDRE",
            "adresse": "CHATEAU DE LA MANDRE\r\r\n4 Rue Calazères\r\r\n31410 LE FAUGA",
            "long": "1.2914894"
        },
        {
            "lat": "43.3540450",
            "code_postal": "31410",
            "commune": "NOE",
            "nom": "RESTAURANT CHEZ PIETRO",
            "adresse": "RESTAURANT CHEZ PIETRO\r\r\n103 bis Route de Toulouse\r\r\n31410 NOE",
            "long": "1.2742093"
        },
        {
            "lat": "43.0863860",
            "code_postal": "31800",
            "commune": "VALENTINE",
            "nom": "CONNIVENCE",
            "adresse": "CONNIVENCE\r\r\nChemin Ample\r\r\n31800 VALENTINE",
            "long": "0.7050900"
        },
        {
            "lat": "43.0269849",
            "code_postal": "31510",
            "commune": "SAINT-BERTRAND-DE-COMMINGES",
            "nom": "CHEZ BETTY",
            "adresse": "CHEZ BETTY\r\r\nRue Porte Majou\r\r\n31510 SAINT-BERTRAND-DE-COMMINGES",
            "long": "0.57052014"
        },
        {
            "lat": "43.4937669",
            "code_postal": "31120",
            "commune": "PINSAGUEL",
            "nom": "RESTAURANT LE GENTIANE",
            "adresse": "RESTAURANT LE GENTIANE\r\r\n7 Rue du Cagire\r\r\nZA Pyrénées\r\r\n31120 PINSAGUEL",
            "long": "1.39627751"
        },
        {
            "lat": "43.2890858",
            "code_postal": "31390",
            "commune": "CARBONNE",
            "nom": "RESTAURANT LA TERRASSE",
            "adresse": "RESTAURANT LA TERRASSE\r\r\n16 Avenue Aristide Briand\r\r\n31390 CARBONNE",
            "long": "1.2062299"
        },
        {
            "lat": "43.5441675",
            "code_postal": "31120",
            "commune": "PORTET-SUR-GARONNE",
            "nom": "RESTAURANT LE TREFLE",
            "adresse": "RESTAURANT LE TREFLE\r\r\n38 - 40 Route d'Espagne\r\r\n31120 PORTET-SUR-GARONNE",
            "long": "1.41662136"
        },
        {
            "lat": "43.295025",
            "code_postal": "31390",
            "commune": "CARBONNE",
            "nom": "RESTAURANT MILLE ET UNE SAVEURS",
            "adresse": "RESTAURANT MILLE ET UNE SAVEURS\r\r\n23 Rue Jean Jaures\r\r\n31390 CARBONNE",
            "long": "1.225292"
        },
        {
            "lat": "43.3766154",
            "code_postal": "31410",
            "commune": "MAUZAC",
            "nom": "LE MOULIN DES ROCHES",
            "adresse": "LE MOULIN DES ROCHES\r\r\n1 Route de Saint-Sulpice\r\r\n31410 MAUZAC",
            "long": "1.29160215"
        },
        {
            "lat": "43.5223679",
            "code_postal": "31120",
            "commune": "PORTET-SUR-GARONNE",
            "nom": "CAFE PAUL",
            "adresse": "CAFE PAUL\r\r\n8 Allées du Baron-Ritay\r\r\n31120 PORTET-SUR-GARONNE",
            "long": "1.4086754"
        },
        {
            "lat": "43.2097006",
            "code_postal": "31220",
            "commune": "CAZERES",
            "nom": "RESTAURANT L'ENCLOS",
            "adresse": "RESTAURANT L'ENCLOS\r\r\n9 Place de l'Enclos\r\r\n31220 CAZERES",
            "long": "1.0886837"
        },
        {
            "lat": "43.2636227",
            "code_postal": "31310",
            "commune": "RIEUX-VOLVESTRE",
            "nom": "RESTAURANT CANTEGRILL",
            "adresse": "RESTAURANT CANTEGRILL\r\r\n3 Route de Latrape\r\r\n31310 RIEUX-VOLVESTRE",
            "long": "1.2145712"
        },
        {
            "lat": "43.1683366",
            "code_postal": "31360",
            "commune": "BOUSSENS",
            "nom": "PIZZERIA DAM2PIZZ",
            "adresse": "PIZZERIA DAM2PIZZ\r\r\n24 Avenue des Pyrénées\r\r\n31360 BOUSSENS",
            "long": "0.9632127"
        },
        {
            "lat": "43.1075999",
            "code_postal": "31800",
            "commune": "SAINT-GAUDENS",
            "nom": "LE FRANCAIS",
            "adresse": "LE FRANCAIS\r\r\nPlace Napoléon\r\r\n31800 SAINT-GAUDENS",
            "long": "0.72504509"
        },
        {
            "lat": "43.1794662",
            "code_postal": "31360",
            "commune": "BOUSSENS",
            "nom": "RESTAURANT DE L'HOTEL DU LAC",
            "adresse": "RESTAURANT DE L'HOTEL DU LAC\r\r\n7 Promenade du Lac \r\r\n31360 BOUSSENS",
            "long": "0.9752397"
        },
        {
            "lat": "43.1078592",
            "code_postal": "31800",
            "commune": "SAINT-GAUDENS",
            "nom": "5 PI R",
            "adresse": "5 PI R\r\r\n5 Place Jean Jaurès\r\r\n31800 SAINT-GAUDENS",
            "long": "0.7245066"
        },
        {
            "lat": "43.2950303",
            "code_postal": "31390",
            "commune": "CARBONNE",
            "nom": "LA BON'HEURE",
            "adresse": "LA BON'HEURE\r\r\n18 Rue Gambetta\r\r\n31390 CARBONNE",
            "long": "1.22630520"
        },
        {
            "lat": "43.106895",
            "code_postal": "31800",
            "commune": "SAINT-GAUDENS",
            "nom": "LE NOUVEAU BISTROT",
            "adresse": "LE NOUVEAU BISTROT\r\r\n44 Boulevard Pasteur \r\r\n31800 SAINT-GAUDENS",
            "long": "0.72376299"
        },
        {
            "lat": "43.2987990",
            "code_postal": "31390",
            "commune": "CARBONNE",
            "nom": "SNACK'IN BUS",
            "adresse": "SNACK'IN BUS\r\r\n10 bis Route de l'Arize\r\r\n31390 CARBONNE",
            "long": "1.2196810"
        },
        {
            "lat": "43.3755970",
            "code_postal": "31410",
            "commune": "MAUZAC",
            "nom": "LA GRAINERIE - LA BRASSERIE DU MOULIN",
            "adresse": "LA GRAINERIE - LA BRASSERIE DU MOULIN\r\r\nAllée des Platanes\r\r\n31410 MAUZAC",
            "long": "1.2908820"
        },
        {
            "lat": "43.2953262",
            "code_postal": "31390",
            "commune": "CARBONNE",
            "nom": "LEGUMES ET CIE",
            "adresse": "LEGUMES ET CIE\r\r\n39 bis Rue Jean Jaurès\r\r\n31390 CARBONNE",
            "long": "1.22514499"
        },
        {
            "lat": "43.2365680",
            "code_postal": "31220",
            "commune": "CAZERES",
            "nom": "MC'DONALD'S",
            "adresse": "MC'DONALD'S\r\r\nLieu dit Porrus\r\r\n31220 CAZERES",
            "long": "1.0756160"
        },
        {
            "lat": "43.1100390",
            "code_postal": "31800",
            "commune": "SAINT-GAUDENS",
            "nom": "LE COMMERCE",
            "adresse": "LE COMMERCE\r\r\n2 Avenue de Boulogne\r\r\n31800 SAINT-GAUDENS",
            "long": "0.72332774"
        },
        {
            "lat": "43.1077546",
            "code_postal": "31800",
            "commune": "SAINT-GAUDENS",
            "nom": "LE SENS UNIQUE",
            "adresse": "LE SENS UNIQUE\r\r\n5 Boulevard Pasteur \r\r\n31800 SAINT-GAUDENS",
            "long": "0.7208507"
        },
        {
            "lat": "43.1066698",
            "code_postal": "31800",
            "commune": "LABARTHE-INARD",
            "nom": "HOSTELLERIE DU PARC",
            "adresse": "HOSTELLERIE DU PARC\r\r\n86 Route Départementale 817\r\r\n31800 LABARTHE-INARD",
            "long": "0.8364239"
        },
        {
            "lat": "43.1087145",
            "code_postal": "31800",
            "commune": "SAINT-GAUDENS",
            "nom": "LE CLUB",
            "adresse": "LE CLUB\r\r\n7 Boulevard Charles de Gaulle\r\r\n31800 SAINT-GAUDENS",
            "long": "0.7210114"
        },
        {
            "lat": "43.1179042",
            "code_postal": "31800",
            "commune": "ESTANCARBON",
            "nom": "LES FROMAGERS DU MONT-ROYAL",
            "adresse": "LES FROMAGERS DU MONT-ROYAL\r\r\nCentre commercial Leclerc St Gopôle\r\r\n10 Avenue du Cagire\r\r\nZAC des Landes \r\r\n31800 ESTANCARBON",
            "long": "0.76473009"
        },
        {
            "lat": "43.1071497",
            "code_postal": "31800",
            "commune": "SAINT-GAUDENS",
            "nom": "SUSHI VAN",
            "adresse": "SUSHI VAN\r\r\n11 Place Armand Marrast\r\r\n31800 SAINT-GAUDENS",
            "long": "0.72394810"
        },
        {
            "lat": "43.2074496",
            "code_postal": "31220",
            "commune": "CAZERES",
            "nom": "LA FRITERIE OCCITANE",
            "adresse": "LA FRITERIE OCCITANE\r\r\nPlace Jules Ferry\r\r\n31220 CAZERES",
            "long": "1.08583372"
        },
        {
            "lat": "43.1086776",
            "code_postal": "31800",
            "commune": "SAINT-GAUDENS",
            "nom": "LA PYRENE",
            "adresse": "LA PYRENE\r\r\n60 Avenue Maréchal Joffre\r\r\n31800 SAINT-GAUDENS",
            "long": "0.7095629"
        },
        {
            "lat": "43.2019955",
            "code_postal": "31220",
            "commune": "PALAMINY",
            "nom": "LA RESERVE",
            "adresse": "LA RESERVE\r\r\nAvenue de Martres-Tolosane\r\r\n31220 PALAMINY",
            "long": "1.06044337"
        },
        {
            "lat": "43.2066075",
            "code_postal": "31220",
            "commune": "CAZERES",
            "nom": "LA TOUR DE PIZZ'",
            "adresse": "LA TOUR DE PIZZ'\r\r\n4 Rue des Martyrs\r\r\n31220 CAZERES",
            "long": "1.08599500"
        },
        {
            "lat": "43.2076227",
            "code_postal": "31220",
            "commune": "CAZERES",
            "nom": "L'AUBERGE ARIEGEOISE",
            "adresse": "L'AUBERGE ARIEGEOISE\r\r\n4 Place Henri Barbusse\r\r\n31220 CAZERES",
            "long": "1.0859103"
        },
        {
            "lat": "43.1904408",
            "code_postal": "31220",
            "commune": "MARTRES-TOLOSANE",
            "nom": "LE RELAIS DE NANA ET POLO",
            "adresse": "LE RELAIS DE NANA ET POLO\r\r\n94 Avenue des Pyrénées\r\r\n31220 MARTRES-TOLOSANE",
            "long": "0.9892139"
        },
        {
            "lat": "43.2037434",
            "code_postal": "31220",
            "commune": "CAZERES",
            "nom": "L'OCCITAN",
            "adresse": "L'OCCITAN\r\r\n5 Quai des Fusillés\r\r\n31220 CAZERES",
            "long": "1.08582779"
        },
        {
            "lat": "43.2053271",
            "code_postal": "31220",
            "commune": "CAZERES",
            "nom": "OCEBON",
            "adresse": "OCEBON\r\r\n22 Rue du Quatre Septembre\r\r\n31220 CAZERES",
            "long": "1.08459398"
        },
        {
            "lat": "43.1090199",
            "code_postal": "31800",
            "commune": "SAINT-GAUDENS",
            "nom": "THAI BOUGIE",
            "adresse": "THAI BOUGIE\r\r\n2 Avenue François Mitterrand\r\r\n31800 SAINT-GAUDENS",
            "long": "0.72875729"
        },
        {
            "lat": "43.2081924",
            "code_postal": "31220",
            "commune": "CAZERES",
            "nom": "TUTTI PIZZA CAZERES",
            "adresse": "TUTTI PIZZA CAZERES\r\r\n30 Avenue Gabriel Péri\r\r\n31220 CAZERES",
            "long": "1.0894716"
        },
        {
            "lat": "43.2056466",
            "code_postal": "31220",
            "commune": "CAZERES",
            "nom": "LA REINE DE LA PIZZA",
            "adresse": "LA REINE DE LA PIZZA\r\r\n2 Place de l'Hôtel de Ville\r\r\n31220 CAZERES",
            "long": "1.08623655"
        },
        {
            "lat": "43.2060141",
            "code_postal": "31220",
            "commune": "CAZERES",
            "nom": "LE JARDIN ENCHAN'THE",
            "adresse": "LE JARDIN ENCHAN'THE\r\r\n7 Place de l'Hôtel de Ville\r\r\n31220 CAZERES",
            "long": "1.0863426"
        },
        {
            "lat": "43.1999724",
            "code_postal": "31220",
            "commune": "MARTRES-TOLOSANE",
            "nom": "PIZZERIA LE CHIRAGAN",
            "adresse": "PIZZERIA LE CHIRAGAN\r\r\n32 Boulevard du Nord\r\r\n31220 MARTRES-TOLOSANE",
            "long": "1.0106337"
        },
        {
            "lat": "43.1743691",
            "code_postal": "31360",
            "commune": "BOUSSENS",
            "nom": "CHEZ BRI",
            "adresse": "CHEZ BRI\r\r\nPlace du 8 mai 1945\r\r\n31360 BOUSSENS",
            "long": "0.9731739"
        },
        {
            "lat": "43.1931909",
            "code_postal": "31220",
            "commune": "MARTRES-TOLOSANE",
            "nom": "L'INSTANT PLAISIR",
            "adresse": "L'INSTANT PLAISIR\r\r\nGalerie marchande Super U\r\r\nRoute des Pyrénées\r\r\n31220 MARTRES-TOLOSANE",
            "long": "0.9966425"
        },
        {
            "lat": "43.2097410",
            "code_postal": "31220",
            "commune": "CAZERES",
            "nom": "LE KIOSQUE A PIZZA",
            "adresse": "LE KIOSQUE A PIZZA\r\r\nCarrefour Market\r\r\nRue Ernest Renan\r\r\n31220 CAZERES",
            "long": "1.0835240"
        },
        {
            "lat": "43.2081532",
            "code_postal": "31220",
            "commune": "CAZERES",
            "nom": "PIZZA PIU",
            "adresse": "PIZZA PIU\r\r\n17 Avenue Pasteur\r\r\n31220 CAZERES",
            "long": "1.0856426"
        },
        {
            "lat": "43.2081532",
            "code_postal": "31220",
            "commune": "CAZERES",
            "nom": "LE PARADIS D'ASIE",
            "adresse": "LE PARADIS D'ASIE\r\r\n17 Avenue Pasteur\r\r\n31220 CAZERES",
            "long": "1.0856426"
        },
        {
            "lat": "43.2112700",
            "code_postal": "31220",
            "commune": "MARTRES-TOLOSANE",
            "nom": "AUBERGE DU PONT DES MEUNIERS",
            "adresse": "AUBERGE DU PONT DES MEUNIERS\r\r\n19 Chemin de Mouliès\r\r\n31220 MARTRES-TOLOSANE",
            "long": "1.0303130"
        },
        {
            "lat": "43.1970404",
            "code_postal": "31220",
            "commune": "MARTRES-TOLOSANE",
            "nom": "HOTEL-RESTAURANT CASTET",
            "adresse": "HOTEL-RESTAURANT CASTET\r\r\n44 Avenue de la Gare\r\r\n31220 MARTRES-TOLOSANE",
            "long": "1.0163301"
        },
        {
            "lat": "43.1073287",
            "code_postal": "31800",
            "commune": "SAINT-GAUDENS",
            "nom": "BRASSERIE LE MOOREA",
            "adresse": "BRASSERIE LE MOOREA\r\r\n33 Boulevard Bepmale\r\r\n31800 SAINT-GAUDENS",
            "long": "0.72560750"
        },
        {
            "lat": "43.0811129",
            "code_postal": "31800",
            "commune": "LABARTHE-RIVIERE",
            "nom": "LE TREFLE",
            "adresse": "LE TREFLE\r\r\n3 Place Massenet \r\r\n31800 LABARTHE-RIVIERE",
            "long": "0.67165360"
        },
        {
            "lat": "43.2010742",
            "code_postal": "31220",
            "commune": "PALAMINY",
            "nom": "AUBERGE DU RAMIER",
            "adresse": "AUBERGE DU RAMIER\r\r\n15 Avenue de Martres\r\r\n31220 PALAMINY",
            "long": "1.0634398"
        },
        {
            "lat": "43.1783506",
            "code_postal": "31360",
            "commune": "MANCIOUX",
            "nom": "LES DRAGONS D’OR",
            "adresse": "LES DRAGONS D’OR\r\r\n3 Route des Pyrénées\r\r\n31360 MANCIOUX",
            "long": "0.9697723"
        },
        {
            "lat": "43.1060107",
            "code_postal": "31800",
            "commune": "SAINT-GAUDENS",
            "nom": "RESTAURANT D'APPLICATION LE BUGATET",
            "adresse": "RESTAURANT D'APPLICATION LE BUGATET\r\r\n16 rue du Bugatet\r\r\n31800 SAINT-GAUDENS",
            "long": "0.72142310"
        },
        {
            "lat": "43.1995771",
            "code_postal": "31220",
            "commune": "MARTRES-TOLOSANE",
            "nom": "LE COMPTOIR DES FRANGINS",
            "adresse": "LE COMPTOIR DES FRANGINS\r\r\n1 Boulevard du Nord\r\r\n31220 MARTRES-TOLOSANE",
            "long": "1.0117605"
        },
        {
            "lat": "43.0266210",
            "code_postal": "31510",
            "commune": "SAINT-BERTRAND-DE-COMMINGES",
            "nom": "LA TABLE DE SAINT-BERTRAND",
            "adresse": "LA TABLE DE SAINT-BERTRAND\r\r\nQuartier Le Plan\r\r\n31510 SAINT-BERTRAND-DE-COMMINGES",
            "long": "0.5708600"
        },
        {
            "lat": "43.0270072",
            "code_postal": "31510",
            "commune": "SAINT-BERTRAND-DE-COMMINGES",
            "nom": "L'OPPIDUM",
            "adresse": "L'OPPIDUM\r\r\nRue de la Poste\r\r\n31510 SAINT-BERTRAND-DE-COMMINGES",
            "long": "0.57177329"
        },
        {
            "lat": "43.0972232",
            "code_postal": "31800",
            "commune": "SAINT-GAUDENS",
            "nom": "L'ETABLE",
            "adresse": "L'ETABLE\r\r\nBoulevard Sommer\r\r\n31800 SAINT-GAUDENS",
            "long": "0.70627421"
        },
        {
            "lat": "43.3537171",
            "code_postal": "31410",
            "commune": "NOE",
            "nom": "RESTAURANT DE L'ARCHE DE NOE",
            "adresse": "RESTAURANT DE L'ARCHE DE NOE\r\r\n2 Place de la Bascule\r\r\n31410 NOE",
            "long": "1.2744587"
        },
        {
            "lat": "43.2578780",
            "code_postal": "31310",
            "commune": "RIEUX-VOLVESTRE",
            "nom": "RESTO DE LA HALLE - CHEZ CLAUDE ET MARLENE",
            "adresse": "RESTO DE LA HALLE - CHEZ CLAUDE ET MARLENE\r\r\n2-4 Place de la Halle\r\r\n31310 RIEUX-VOLVESTRE",
            "long": "1.2012500"
        },
        {
            "lat": "43.2933357",
            "code_postal": "31390",
            "commune": "CARBONNE",
            "nom": "O G'ROSSOMODO",
            "adresse": "O G'ROSSOMODO\r\r\nAvenue Frédéric Mistral\r\r\n31390 CARBONNE",
            "long": "1.22470185"
        },
        {
            "lat": "43.4615740",
            "code_postal": "31600",
            "commune": "MURET",
            "nom": "LE MARCLAN",
            "adresse": "LE MARCLAN\r\r\n22 Bis Rue de Marclan\r\r\nZI Marclan\r\r\n31600 MURET",
            "long": "1.3307100"
        },
        {
            "lat": "43.0272837",
            "code_postal": "31510",
            "commune": "SAINT-BERTRAND-DE-COMMINGES",
            "nom": "CHEZ SIMONE",
            "adresse": "CHEZ SIMONE\r\r\nRue du Musée\r\r\n31510 SAINT-BERTRAND-DE-COMMINGES",
            "long": "0.57026454"
        },
        {
            "lat": "43.1179552",
            "code_postal": "31800",
            "commune": "ESTANCARBON",
            "nom": "LE REFUGE",
            "adresse": "LE REFUGE\r\r\n10 Avenue du Cagire\r\r\nZAC des Landes\r\r\n31800 ESTANCARBON",
            "long": "0.76423600"
        },
        {
            "lat": "43.1080639",
            "code_postal": "31800",
            "commune": "SAINT-GAUDENS",
            "nom": "ATELIER GOURMANDISES",
            "adresse": "ATELIER GOURMANDISES\r\r\n7 Place Jean Jaurès\r\r\n31800 SAINT-GAUDENS",
            "long": "0.72531630"
        }
    ],
    "activites_sportives": [
        {
            "lat": "43.4483793",
            "code_postal": "31600",
            "commune": "MURET",
            "nom": "AEROCLUB CLEMENT ADER",
            "adresse": "AEROCLUB CLEMENT ADER\r\r\nAérodrome de Muret Lherm\r\r\n30 Avenue de l'Aviation\r\r\n31600 MURET",
            "long": "1.2703843"
        },
        {
            "lat": "43.1080201",
            "code_postal": "31360",
            "commune": "BEAUCHALOT",
            "nom": "ARCENSCIEL NATURE",
            "adresse": "ARCENSCIEL NATURE\r\r\nM. CYRIL FERNANDEZ\r\r\n31360 BEAUCHALOT",
            "long": "0.86904949"
        },
        {
            "lat": "43.1392638",
            "code_postal": "31360",
            "commune": "SAINT-MARTORY",
            "nom": "ATELIER RYHTME DU CALENDRIER POUR LE JARDIN ET OBSERVATION DU CIEL ETOILE",
            "adresse": "ATELIER RYHTME DU CALENDRIER POUR LE JARDIN ET OBSERVATION DU CIEL ETOILE\r\r\nRue des écoles\r\r\n31360 SAINT-MARTORY",
            "long": "0.9304214"
        },
        {
            "lat": "43.5232250",
            "code_postal": "31120",
            "commune": "PORTET-SUR-GARONNE",
            "nom": "CENTRE DE VACANCES MOTO QUAD JETSKI",
            "adresse": "CENTRE DE VACANCES MOTO QUAD JETSKI\r\r\n47 Route d'Espagne\r\r\n31120 PORTET-SUR-GARONNE",
            "long": "1.3971473"
        },
        {
            "lat": "43.0412109",
            "code_postal": "31510",
            "commune": "LABROQUERE",
            "nom": "CLAUDE BOISMARD",
            "adresse": "CLAUDE BOISMARD\r\r\n31510 LABROQUERE",
            "long": "0.5903320"
        },
        {
            "lat": "43.1241467",
            "code_postal": "31360",
            "commune": "SAINT-MEDARD",
            "nom": "CLOS DE CESAMME",
            "adresse": "CLOS DE CESAMME\r\r\nLieu-dit Bladets\r\r\n31360 SAINT-MEDARD",
            "long": "0.8273241"
        },
        {
            "lat": "",
            "code_postal": "31800",
            "commune": "SAINT-GAUDENS",
            "nom": "CLUB DE CANOE KAYAK",
            "adresse": "CLUB DE CANOE KAYAK\r\r\nMJC du Saint-Gaudinois\r\r\n1 Place du Maréchal Juin\r\r\n31800 SAINT-GAUDENS",
            "long": ""
        },
        {
            "lat": "43.0797678",
            "code_postal": "31800",
            "commune": "LABARTHE-RIVIERE",
            "nom": "ECO RANDO",
            "adresse": "ECO RANDO\r\r\n9 Avenue des Thermes\r\r\n31800 LABARTHE-RIVIERE",
            "long": "0.6741922"
        },
        {
            "lat": "43.0428340",
            "code_postal": "31510",
            "commune": "LABROQUERE",
            "nom": "ENTRE TERRE ET CIEL",
            "adresse": "ENTRE TERRE ET CIEL\r\r\nAncienne Mairie - Ecole\r\r\n31510 LABROQUERE",
            "long": "0.59239193"
        },
        {
            "lat": "43.1452020",
            "code_postal": "31360",
            "commune": "CASTILLON-DE-SAINT-MARTORY",
            "nom": "LA FERME DES PIPES",
            "adresse": "LA FERME DES PIPES\r\r\nQuartier Saint Roch\r\r\n31360 CASTILLON-DE-SAINT-MARTORY",
            "long": "0.8020170"
        },
        {
            "lat": "",
            "code_postal": "31210",
            "commune": "POINTIS-DE-RIVIERE",
            "nom": "LES ECURIES DE VIATES",
            "adresse": "LES ECURIES DE VIATES\r\r\n60 Rue du Château d'Eau\r\r\n31210 POINTIS-DE-RIVIERE",
            "long": ""
        },
        {
            "lat": "43.0785129",
            "code_postal": "31210",
            "commune": "HUOS",
            "nom": "MARC LUBIN",
            "adresse": "MARC LUBIN\r\r\n1 Rue de la Grotte\r\r\n31210 HUOS",
            "long": "0.5940183"
        },
        {
            "lat": "",
            "code_postal": "31510",
            "commune": "LABROQUERE",
            "nom": "MURMURES D'ARBRES",
            "adresse": "MURMURES D'ARBRES\r\r\nMr Jean-Paul Delmas\r\r\n\r\r\nLe Castillon\r\r\n31510 LABROQUERE",
            "long": ""
        },
        {
            "lat": "43.4484823",
            "code_postal": "31600",
            "commune": "MURET",
            "nom": "AEROCLUB JEAN MERMOZ",
            "adresse": "AEROCLUB JEAN MERMOZ\r\r\nAérodrome Muret Lherm\r\r\n14 Avenue de l'Aviation\r\r\n31600 MURET",
            "long": "1.27004099"
        },
        {
            "lat": "43.1341210",
            "code_postal": "31360",
            "commune": "CASTILLON-DE-SAINT-MARTORY",
            "nom": "PYRENEES EXPLORATION",
            "adresse": "PYRENEES EXPLORATION\r\r\nAllées de Bigot\r\r\n31360 CASTILLON-DE-SAINT-MARTORY",
            "long": "0.8582990"
        },
        {
            "lat": "43.106895",
            "code_postal": "31800",
            "commune": "SAINT-GAUDENS",
            "nom": "SPORTS DE NANA",
            "adresse": "SPORTS DE NANA\r\r\n31800 SAINT-GAUDENS",
            "long": "0.72376299"
        },
        {
            "lat": "43.4615740",
            "code_postal": "31600",
            "commune": "MURET",
            "nom": "INNOV'AIR",
            "adresse": "INNOV'AIR\r\r\nRue de l'Aviation Zone ULM\r\r\nAérodrome de Muret Lherm \r\r\n31600 MURET",
            "long": "1.3307100"
        },
        {
            "lat": "43.2000670",
            "code_postal": "31220",
            "commune": "MARTRES-TOLOSANE",
            "nom": "ECURIES MARTRAISES",
            "adresse": "ECURIES MARTRAISES\r\r\nMoutoulies d'en Haut\r\r\n31220 MARTRES-TOLOSANE",
            "long": "0.98687451"
        },
        {
            "lat": "43.2951330",
            "code_postal": "31390",
            "commune": "CARBONNE",
            "nom": "SUR LES HAUTEURS",
            "adresse": "SUR LES HAUTEURS\r\r\n23 Rue Gambetta\r\r\n31390 CARBONNE",
            "long": "1.2260659"
        },
        {
            "lat": "43.2637813",
            "code_postal": "31310",
            "commune": "RIEUX-VOLVESTRE",
            "nom": "CENTRE EQUESTRE DE RIEUX VOLVESTRE",
            "adresse": "CENTRE EQUESTRE DE RIEUX VOLVESTRE\r\r\nRoute de Latrape\r\r\n31310 RIEUX-VOLVESTRE",
            "long": "1.2142304"
        },
        {
            "lat": "43.1037367",
            "code_postal": "31800",
            "commune": "SAINT-GAUDENS",
            "nom": "ECURIES SAINTE ANNE",
            "adresse": "ECURIES SAINTE ANNE\r\r\n1547 Rue de la Vielle\r\r\n31800 SAINT-GAUDENS",
            "long": "0.7459110"
        },
        {
            "lat": "43.2703884",
            "code_postal": "31310",
            "commune": "RIEUX-VOLVESTRE",
            "nom": "USR VOILE AVIRON",
            "adresse": "USR VOILE AVIRON\r\r\nPlan d'Eau\r\r\n31310 RIEUX-VOLVESTRE",
            "long": "1.17935105"
        },
        {
            "lat": "43.4356249",
            "code_postal": "31600",
            "commune": "MURET",
            "nom": "CLUB DES AILES LEGERES MURETAINE",
            "adresse": "CLUB DES AILES LEGERES MURETAINE\r\r\nAvenue de l'Aérodrome\r\r\n31600 MURET",
            "long": "1.2455944"
        },
        {
            "lat": "43.2011270",
            "code_postal": "31220",
            "commune": "PALAMINY",
            "nom": "AEROCLUB PALAMINY CAZERES",
            "adresse": "AEROCLUB PALAMINY CAZERES\r\r\nAvenue de Martres Tolosane\r\r\n31220 PALAMINY",
            "long": "1.0628510"
        },
        {
            "lat": "43.2432290",
            "code_postal": "31310",
            "commune": "RIEUX-VOLVESTRE",
            "nom": "LE RUCHER DES ANES",
            "adresse": "LE RUCHER DES ANES\r\r\nLe Cap del Pigne\r\r\n31310 RIEUX-VOLVESTRE",
            "long": "1.2145313"
        },
        {
            "lat": "43.0328900",
            "code_postal": "31510",
            "commune": "VALCABRERE",
            "nom": "LES PAGAIES",
            "adresse": "LES PAGAIES\r\r\n31510 VALCABRERE",
            "long": "0.5831010"
        }
    ]
}